{"type": "FeatureCollection", "name": "familienorte", "crs": {"type": "name", "properties": {"name": "urn:ogc:def:crs:EPSG::25832"}}, "features": [{"type": "Feature", "geometry": {"type": "Point", "coordinates": [575614.667, 5938044.488]}, "properties": {"kategorie": "Eltern-Kind-Zentrum", "einrichtung": "Kita Dahlemer Ring", "adresse": "Dahlemer Ring 3 ", "ort": "22045 Hamburg", "link": "https://www.hamburg.de/eltern-kind-zentren/", "angebotstyp": "Eltern-Kind-Zentrum", "quelle_layer": "19944"}}, {"type": "Feature", "geometry": {"type": "Point", "coordinates": [559469.531, 5940471.468]}, "properties": {"kategorie": "Eltern-Kind-Zentrum", "einrichtung": "Kita Lohkampstraße", "adresse": "Lohkampstraße 43 ", "ort": "22523 Hamburg", "link": "https://www.hamburg.de/eltern-kind-zentren/", "angebotstyp": "Eltern-Kind-Zentrum", "quelle_layer": "19944"}}, {"type": "Feature", "geometry": {"type": "Point", "coordinates": [577153.355, 5942861.785]}, "properties": {"kategorie": "Eltern-Kind-Zentrum", "einrichtung": "Kita Spitzbergenweg", "adresse": "Spitzbergenweg 40 ", "ort": "22145 Hamburg", "link": "https://www.hamburg.de/eltern-kind-zentren/", "angebotstyp": "Eltern-Kind-Zentrum", "quelle_layer": "19944"}}, {"type": "Feature", "geometry": {"type": "Point", "coordinates": [558213.19, 5925974.642]}, "properties": {"kategorie": "Eltern-Kind-Zentrum", "einrichtung": "Kita Grüne Insel/Dr. Ernst-Hinze-Haus", "adresse": "Stubbenhof 20 ", "ort": "21147 Hamburg", "link": "https://www.hamburg.de/eltern-kind-zentren/", "angebotstyp": "Eltern-Kind-Zentrum", "quelle_layer": "19944"}}, {"type": "Feature", "geometry": {"type": "Point", "coordinates": [556113.161, 5938021.118]}, "properties": {"kategorie": "Eltern-Kind-Zentrum", "einrichtung": "Ev. Kita Maria Magdalena", "adresse": "Achtern Born 127 a", "ort": "22549 Hamburg", "link": "https://www.hamburg.de/eltern-kind-zentren/", "angebotstyp": "Eltern-Kind-Zentrum", "quelle_layer": "19944"}}, {"type": "Feature", "geometry": {"type": "Point", "coordinates": [558969.12, 5936546.306]}, "properties": {"kategorie": "Eltern-Kind-Zentrum", "einrichtung": "Kita an der Trabrennbahn", "adresse": "Albert-Einstein-Ring 1-3 a", "ort": "22761 Hamburg", "link": "https://www.hamburg.de/eltern-kind-zentren/", "angebotstyp": "Eltern-Kind-Zentrum", "quelle_layer": "19944"}}, {"type": "Feature", "geometry": {"type": "Point", "coordinates": [565411.402, 5923133.973]}, "properties": {"kategorie": "Eltern-Kind-Zentrum", "einrichtung": "Elbkinder-Kita Eddelbüttelstraße mit EKiZ", "adresse": "Eddelbüttelstraße 9 ", "ort": "21073 Hamburg", "link": "https://www.hamburg.de/eltern-kind-zentren/", "angebotstyp": "Eltern-Kind-Zentrum", "quelle_layer": "19944"}}, {"type": "Feature", "geometry": {"type": "Point", "coordinates": [556439.42, 5938208.49]}, "properties": {"kategorie": "Eltern-Kind-Zentrum", "einrichtung": "EKiZ Sonnengarten (für Kinder mit Behinderungen)", "adresse": "Bornheide 76 ", "ort": "22549 Hamburg", "link": "https://www.hamburg.de/eltern-kind-zentren/", "angebotstyp": "Eltern-Kind-Zentrum", "quelle_layer": "19944"}}, {"type": "Feature", "geometry": {"type": "Point", "coordinates": [559670.71, 5935314.829]}, "properties": {"kategorie": "Eltern-Kind-Zentrum", "einrichtung": "Kita der Ev. Luther-Kirchengemeinde", "adresse": "Lyserstraße 23-25 ", "ort": "22761 Hamburg", "link": "https://www.hamburg.de/eltern-kind-zentren/", "angebotstyp": "Eltern-Kind-Zentrum", "quelle_layer": "19944"}}, {"type": "Feature", "geometry": {"type": "Point", "coordinates": [567026.918, 5927627.801]}, "properties": {"kategorie": "Eltern-Kind-Zentrum", "einrichtung": "Kita Prassekstraße", "adresse": "Prassekstraße 3 ", "ort": "21109 Hamburg", "link": "https://www.hamburg.de/eltern-kind-zentren/", "angebotstyp": "Eltern-Kind-Zentrum", "quelle_layer": "19944"}}, {"type": "Feature", "geometry": {"type": "Point", "coordinates": [563209.08, 5934435.589]}, "properties": {"kategorie": "Eltern-Kind-Zentrum", "einrichtung": "Kita Scheplerstraße", "adresse": "Scheplerstraße 5 ", "ort": "22767 Hamburg", "link": "https://www.hamburg.de/eltern-kind-zentren/", "angebotstyp": "Eltern-Kind-Zentrum", "quelle_layer": "19944"}}, {"type": "Feature", "geometry": {"type": "Point", "coordinates": [570555.998, 5945561.525]}, "properties": {"kategorie": "Eltern-Kind-Zentrum", "einrichtung": "Kita Löwenzahn", "adresse": "Tegelsbarg 2 h", "ort": "22399 Hamburg", "link": "https://www.hamburg.de/eltern-kind-zentren/", "angebotstyp": "Eltern-Kind-Zentrum", "quelle_layer": "19944"}}, {"type": "Feature", "geometry": {"type": "Point", "coordinates": [560601.269, 5944392.696]}, "properties": {"kategorie": "Eltern-Kind-Zentrum", "einrichtung": "Kita Bluma Mekler", "adresse": "Brüder-Hornemann-Straße 3 ", "ort": "22457 Hamburg", "link": "https://www.hamburg.de/eltern-kind-zentren/", "angebotstyp": "Eltern-Kind-Zentrum", "quelle_layer": "19944"}}, {"type": "Feature", "geometry": {"type": "Point", "coordinates": [567738.91, 5931003.601]}, "properties": {"kategorie": "Eltern-Kind-Zentrum", "einrichtung": "Kita Uffelnsweg", "adresse": "Uffelnsweg 1 ", "ort": "22539 Hamburg", "link": "https://www.hamburg.de/eltern-kind-zentren/", "angebotstyp": "Eltern-Kind-Zentrum", "quelle_layer": "19944"}}, {"type": "Feature", "geometry": {"type": "Point", "coordinates": [572382.169, 5939435.249]}, "properties": {"kategorie": "Eltern-Kind-Zentrum", "einrichtung": "Kita Bengelsdorfstraße", "adresse": "Bengelsdorfstraße 7 ", "ort": "22179 Hamburg", "link": "https://www.hamburg.de/eltern-kind-zentren/", "angebotstyp": "Eltern-Kind-Zentrum", "quelle_layer": "19944"}}, {"type": "Feature", "geometry": {"type": "Point", "coordinates": [570013.312, 5937548.144]}, "properties": {"kategorie": "Eltern-Kind-Zentrum", "einrichtung": "Kita Lothringer Straße", "adresse": "Lothringer Straße 18 ", "ort": "22049 Hamburg", "link": "https://www.hamburg.de/eltern-kind-zentren/", "angebotstyp": "Eltern-Kind-Zentrum", "quelle_layer": "19944"}}, {"type": "Feature", "geometry": {"type": "Point", "coordinates": [563724.616, 5933504.071]}, "properties": {"kategorie": "Eltern-Kind-Zentrum", "einrichtung": "Kita Lelka Birnbaum", "adresse": "St. Pauli Hafenstraße 100 ", "ort": "20359 Hamburg", "link": "https://www.hamburg.de/eltern-kind-zentren/", "angebotstyp": "Eltern-Kind-Zentrum", "quelle_layer": "19944"}}, {"type": "Feature", "geometry": {"type": "Point", "coordinates": [569456.225, 5940408.404]}, "properties": {"kategorie": "Eltern-Kind-Zentrum", "einrichtung": "Kita Steilshooper Allee", "adresse": "Steilshooper Allee 30 ", "ort": "22309 Hamburg", "link": "https://www.hamburg.de/eltern-kind-zentren/", "angebotstyp": "Eltern-Kind-Zentrum", "quelle_layer": "19944"}}, {"type": "Feature", "geometry": {"type": "Point", "coordinates": [571588.205, 5947106.503]}, "properties": {"kategorie": "Eltern-Kind-Zentrum", "einrichtung": "Kita Sportini Poppenbüttel", "adresse": "Ohlendiekshöhe 2 ", "ort": "22399 Hamburg", "link": "https://www.hamburg.de/eltern-kind-zentren/", "angebotstyp": "Eltern-Kind-Zentrum", "quelle_layer": "19944"}}, {"type": "Feature", "geometry": {"type": "Point", "coordinates": [577502.288, 5926478.746]}, "properties": {"kategorie": "Eltern-Kind-Zentrum", "einrichtung": "Kita Johanna-Kirchner-Haus", "adresse": "Fanny-Lewald-Ring 130 a", "ort": "21035 Hamburg", "link": "https://www.hamburg.de/eltern-kind-zentren/", "angebotstyp": "Eltern-Kind-Zentrum", "quelle_layer": "19944"}}, {"type": "Feature", "geometry": {"type": "Point", "coordinates": [569010.731, 5939719.678]}, "properties": {"kategorie": "Eltern-Kind-Zentrum", "einrichtung": "Kita Hartzloh", "adresse": "Hartzloh 50 ", "ort": "22307 Hamburg", "link": "https://www.hamburg.de/eltern-kind-zentren/", "angebotstyp": "Eltern-Kind-Zentrum", "quelle_layer": "19944"}}, {"type": "Feature", "geometry": {"type": "Point", "coordinates": [562523.222, 5944024.642]}, "properties": {"kategorie": "Eltern-Kind-Zentrum", "einrichtung": "Kita Wagrierweg", "adresse": "Wagrierweg 16 ", "ort": "22455 Hamburg", "link": "https://www.hamburg.de/eltern-kind-zentren/", "angebotstyp": "Eltern-Kind-Zentrum", "quelle_layer": "19944"}}, {"type": "Feature", "geometry": {"type": "Point", "coordinates": [551646.664, 5930857.712]}, "properties": {"kategorie": "Eltern-Kind-Zentrum", "einrichtung": "Kinderzentrum Neuenfelde", "adresse": "Liedenkummer Bogen 2 ", "ort": "21129 Hamburg", "link": "https://www.hamburg.de/eltern-kind-zentren/", "angebotstyp": "Eltern-Kind-Zentrum", "quelle_layer": "19944"}}, {"type": "Feature", "geometry": {"type": "Point", "coordinates": [563431.9, 5924185.545]}, "properties": {"kategorie": "Eltern-Kind-Zentrum", "einrichtung": "Ev. Kita St. Petrus", "adresse": "Haakestraße 98 ", "ort": "21075 Hamburg", "link": "https://www.hamburg.de/eltern-kind-zentren/", "angebotstyp": "Eltern-Kind-Zentrum", "quelle_layer": "19944"}}, {"type": "Feature", "geometry": {"type": "Point", "coordinates": [566401.203, 5945310.058]}, "properties": {"kategorie": "Eltern-Kind-Zentrum", "einrichtung": "Kita Sandfoort", "adresse": "Sandfoort 39 ", "ort": "22415 Hamburg", "link": "https://www.hamburg.de/eltern-kind-zentren/", "angebotstyp": "Eltern-Kind-Zentrum", "quelle_layer": "19944"}}, {"type": "Feature", "geometry": {"type": "Point", "coordinates": [565850.454, 5947539.878]}, "properties": {"kategorie": "Eltern-Kind-Zentrum", "einrichtung": "Kita Dortmunder Straße", "adresse": "Dortmunder Straße 44 ", "ort": "22419 Hamburg", "link": "https://www.hamburg.de/eltern-kind-zentren/", "angebotstyp": "Eltern-Kind-Zentrum", "quelle_layer": "19944"}}, {"type": "Feature", "geometry": {"type": "Point", "coordinates": [568627.906, 5934214.686]}, "properties": {"kategorie": "Eltern-Kind-Zentrum", "einrichtung": "Kita Eiffestraße", "adresse": "Eiffestraße 60 a", "ort": "20357 Hamburg", "link": "https://www.hamburg.de/eltern-kind-zentren/", "angebotstyp": "Eltern-Kind-Zentrum", "quelle_layer": "19944"}}, {"type": "Feature", "geometry": {"type": "Point", "coordinates": [554555.272, 5936813.289]}, "properties": {"kategorie": "Eltern-Kind-Zentrum", "einrichtung": "Kita Iserbrook", "adresse": "Schenefelder Landstraße 202 ", "ort": "22589 Hamburg", "link": "https://www.hamburg.de/eltern-kind-zentren/", "angebotstyp": "Eltern-Kind-Zentrum", "quelle_layer": "19944"}}, {"type": "Feature", "geometry": {"type": "Point", "coordinates": [570046.855, 5933629.131]}, "properties": {"kategorie": "Eltern-Kind-Zentrum", "einrichtung": "Kita Osterbrook", "adresse": "Osterbrookplatz 24 ", "ort": "20537 Hamburg", "link": "https://www.hamburg.de/eltern-kind-zentren/", "angebotstyp": "Eltern-Kind-Zentrum", "quelle_layer": "19944"}}, {"type": "Feature", "geometry": {"type": "Point", "coordinates": [577501.642, 5930481.159]}, "properties": {"kategorie": "Eltern-Kind-Zentrum", "einrichtung": "Kita Boberg", "adresse": "Bockhorster Weg 1 ", "ort": "21031 Hamburg", "link": "https://www.hamburg.de/eltern-kind-zentren/", "angebotstyp": "Eltern-Kind-Zentrum", "quelle_layer": "19944"}}, {"type": "Feature", "geometry": {"type": "Point", "coordinates": [580571.239, 5927085.711]}, "properties": {"kategorie": "Eltern-Kind-Zentrum", "einrichtung": "Kita Neuer Mohnhof", "adresse": "Hinterm Graben 37 ", "ort": "21029 Hamburg", "link": "https://www.hamburg.de/eltern-kind-zentren/", "angebotstyp": "Eltern-Kind-Zentrum", "quelle_layer": "19944"}}, {"type": "Feature", "geometry": {"type": "Point", "coordinates": [580270.102, 5929784.213]}, "properties": {"kategorie": "Eltern-Kind-Zentrum", "einrichtung": "DRK Kita Regenbogen", "adresse": "Röpraredder 70 ", "ort": "21031 Hamburg", "link": "https://www.hamburg.de/eltern-kind-zentren/", "angebotstyp": "Eltern-Kind-Zentrum", "quelle_layer": "19944"}}, {"type": "Feature", "geometry": {"type": "Point", "coordinates": [563736.585, 5934732.487]}, "properties": {"kategorie": "Eltern-Kind-Zentrum", "einrichtung": "EKiZ Schilleroper", "adresse": "Bei der Schilleroper 15 ", "ort": "22767 Hamburg", "link": "https://www.hamburg.de/eltern-kind-zentren/", "angebotstyp": "Eltern-Kind-Zentrum", "quelle_layer": "19944"}}, {"type": "Feature", "geometry": {"type": "Point", "coordinates": [565667.603, 5929970.732]}, "properties": {"kategorie": "Eltern-Kind-Zentrum", "einrichtung": "Ev. Kita Emmaus", "adresse": "Mannesallee 21 ", "ort": "21107 Hamburg", "link": "https://www.hamburg.de/eltern-kind-zentren/", "angebotstyp": "Eltern-Kind-Zentrum", "quelle_layer": "19944"}}, {"type": "Feature", "geometry": {"type": "Point", "coordinates": [575101.518, 5927845.048]}, "properties": {"kategorie": "Eltern-Kind-Zentrum", "einrichtung": "Frosch-Kita", "adresse": "Am Gleisdreieck 4 a", "ort": "21033 Hamburg", "link": "https://www.hamburg.de/eltern-kind-zentren/", "angebotstyp": "Eltern-Kind-Zentrum", "quelle_layer": "19944"}}, {"type": "Feature", "geometry": {"type": "Point", "coordinates": [556193.624, 5925489.234]}, "properties": {"kategorie": "Eltern-Kind-Zentrum", "einrichtung": "Kita Storchenwiese", "adresse": "Weidengrasweg 2 a", "ort": "21147 Hamburg", "link": "https://www.hamburg.de/eltern-kind-zentren/", "angebotstyp": "Eltern-Kind-Zentrum", "quelle_layer": "19944"}}, {"type": "Feature", "geometry": {"type": "Point", "coordinates": [574314.515, 5932528.88]}, "properties": {"kategorie": "Eltern-Kind-Zentrum", "einrichtung": "Kita Druckerstraße", "adresse": "Druckerstraße 19 ", "ort": "22117 Hamburg", "link": "https://www.hamburg.de/eltern-kind-zentren/", "angebotstyp": "Eltern-Kind-Zentrum", "quelle_layer": "19944"}}, {"type": "Feature", "geometry": {"type": "Point", "coordinates": [572672.088, 5934034.778]}, "properties": {"kategorie": "Eltern-Kind-Zentrum", "einrichtung": "Kita Hermannstal", "adresse": "Hermannstal 88 ", "ort": "22119 Hamburg", "link": "https://www.hamburg.de/eltern-kind-zentren/", "angebotstyp": "Eltern-Kind-Zentrum", "quelle_layer": "19944"}}, {"type": "Feature", "geometry": {"type": "Point", "coordinates": [574866.306, 5937566.063]}, "properties": {"kategorie": "Eltern-Kind-Zentrum", "einrichtung": "Kita Jenfelder Au", "adresse": "Kuehnbachring 6 ", "ort": "22045 Hamburg", "link": "https://www.hamburg.de/eltern-kind-zentren/", "angebotstyp": "Eltern-Kind-Zentrum", "quelle_layer": "19944"}}, {"type": "Feature", "geometry": {"type": "Point", "coordinates": [557086.554, 5924945.752]}, "properties": {"kategorie": "Eltern-Kind-Zentrum", "einrichtung": "Kita An der Falkenbek", "adresse": "An der Falkenbek 4 ", "ort": "21149 Hamburg", "link": "https://www.hamburg.de/eltern-kind-zentren/", "angebotstyp": "Eltern-Kind-Zentrum", "quelle_layer": "19944"}}, {"type": "Feature", "geometry": {"type": "Point", "coordinates": [574122.062, 5940175.432]}, "properties": {"kategorie": "Eltern-Kind-Zentrum", "einrichtung": "Kita Berner Heerweg", "adresse": "Berner Heerweg 162 ", "ort": "22159 Hamburg", "link": "https://www.hamburg.de/eltern-kind-zentren/", "angebotstyp": "Eltern-Kind-Zentrum", "quelle_layer": "19944"}}, {"type": "Feature", "geometry": {"type": "Point", "coordinates": [576145.779, 5931460.932]}, "properties": {"kategorie": "Eltern-Kind-Zentrum", "einrichtung": "Kita Leuchtturm", "adresse": "Paul-Klee-Straße 3 ", "ort": "22115 Hamburg", "link": "https://www.hamburg.de/eltern-kind-zentren/", "angebotstyp": "Eltern-Kind-Zentrum", "quelle_layer": "19944"}}, {"type": "Feature", "geometry": {"type": "Point", "coordinates": [562983.086, 5938144.58]}, "properties": {"kategorie": "Eltern-Kind-Zentrum", "einrichtung": "Kita Vizelinstraße", "adresse": "Vizelinstraße 48 ", "ort": "22529 Hamburg", "link": "https://www.hamburg.de/eltern-kind-zentren/", "angebotstyp": "Eltern-Kind-Zentrum", "quelle_layer": "19944"}}, {"type": "Feature", "geometry": {"type": "Point", "coordinates": [558941.604, 5938903.28]}, "properties": {"kategorie": "Eltern-Kind-Zentrum", "einrichtung": "Ev. Kita Moorwisch", "adresse": "Moorwisch 2 ", "ort": "22547 Hamburg", "link": "https://www.hamburg.de/eltern-kind-zentren/", "angebotstyp": "Eltern-Kind-Zentrum", "quelle_layer": "19944"}}, {"type": "Feature", "geometry": {"type": "Point", "coordinates": [575675.76, 5941710.49]}, "properties": {"kategorie": "Eltern-Kind-Zentrum", "einrichtung": "Kita Rappelkiste", "adresse": "Hermann-Balk-Straße 47 ", "ort": "22147 Hamburg", "link": "https://www.hamburg.de/eltern-kind-zentren/", "angebotstyp": "Eltern-Kind-Zentrum", "quelle_layer": "19944"}}, {"type": "Feature", "geometry": {"type": "Point", "coordinates": [565220.0223, 5923192.6243]}, "properties": {"kategorie": "Familienbildung und -beratung", "kategorie_2": "Elternschule", "einrichtung": "Elternschule im Feuervogel- Bürgerzentrum Phönix", "adresse": "Maretstraße 50 ", "ort": "21073 Hamburg", "link": "https://www.hamburg.de/politik-und-verwaltung/behoerden/bsfb/familie/familienwegweiser/familienbildung-35472", "traeger": "Bezirksamt Harburg", "angebotstyp": "Familienbildung und -beratung", "quelle_layer": "34597"}}, {"type": "Feature", "geometry": {"type": "Point", "coordinates": [554782.63486, 5925280.8315]}, "properties": {"kategorie": "Familienbildung und -beratung", "kategorie_2": "Elternschule", "einrichtung": "Familienfördernde Angebote im OhrnsInn", "adresse": "Ohrnsweg 4 ", "ort": "21149 Hamburg", "link": "https://www.hamburg.de/politik-und-verwaltung/behoerden/bsfb/familie/familienwegweiser/familienbildung-35470", "traeger": "Margaretenhort Kinder- und Jugendhilfe gGmbH", "angebotstyp": "Familienbildung und -beratung", "quelle_layer": "34597"}}, {"type": "Feature", "geometry": {"type": "Point", "coordinates": [574259.8646, 5935423.6469]}, "properties": {"kategorie": "Familienbildung und -beratung", "kategorie_2": "Kinder- und Familienhilfezentrum", "einrichtung": "Kinder- und Familienhilfezentrum Dringsheide", "adresse": "Dringsheide 3 ", "ort": "22119 Hamburg", "link": "https://www.hamburg.de/politik-und-verwaltung/behoerden/bsfb/familie/familienwegweiser/familienbildung-35481", "traeger": "Das Rauhe Haus", "angebotstyp": "Familienbildung und -beratung", "quelle_layer": "34597"}}, {"type": "Feature", "geometry": {"type": "Point", "coordinates": [578521.01827, 5927634.1684]}, "properties": {"kategorie": "Familienbildung und -beratung", "kategorie_2": "Elternschule", "einrichtung": "Elternschule Bergedorf", "adresse": "Billwerder Billdeich 648 a", "ort": "21033 Hamburg", "link": "https://www.hamburg.de/politik-und-verwaltung/behoerden/bsfb/familie/familienwegweiser/familienbildung-35475", "traeger": "Bezirksamt Bergedorf", "angebotstyp": "Familienbildung und -beratung", "quelle_layer": "34597"}}, {"type": "Feature", "geometry": {"type": "Point", "coordinates": [551741.17258, 5937425.3379]}, "properties": {"kategorie": "Familienbildung und -beratung", "kategorie_2": "Kinder- und Familienhilfezentrum", "einrichtung": "Kleines Kifaz Rissen", "adresse": "Suurheid 111 ", "ort": "22559 Hamburg", "link": "https://www.hamburg.de/politik-und-verwaltung/behoerden/bsfb/familie/familienwegweiser/familienbildung-35479", "traeger": "DKSB LV Hamburg e. V.(A)", "angebotstyp": "Familienbildung und -beratung", "quelle_layer": "34597"}}, {"type": "Feature", "geometry": {"type": "Point", "coordinates": [569049.01413, 5936960.3584]}, "properties": {"kategorie": "Familienbildung und -beratung", "kategorie_2": "Kinder- und Familienhilfezentrum", "einrichtung": "KiFaz Barmbek-Süd", "adresse": "Wohldorfer Straße 30 ", "ort": "22081 Hamburg", "link": "https://www.hamburg.de/politik-und-verwaltung/behoerden/bsfb/familie/familienwegweiser/familienbildung-35480", "traeger": "Verband Kinder- und Jugendarbeit Hamburg e.V.", "angebotstyp": "Familienbildung und -beratung", "quelle_layer": "34597"}}, {"type": "Feature", "geometry": {"type": "Point", "coordinates": [567790.18465, 5947883.286]}, "properties": {"kategorie": "Familienbildung und -beratung", "kategorie_2": "Elternschule", "einrichtung": "Elternschule Langenhorn", "adresse": "Holitzberg 139 a", "ort": "22417 Hamburg", "link": "https://www.hamburg.de/politik-und-verwaltung/behoerden/bsfb/familie/familienwegweiser/familienbildung-35464", "traeger": "Bezirksamt Hamburg-Nord", "angebotstyp": "Familienbildung und -beratung", "quelle_layer": "34597"}}, {"type": "Feature", "geometry": {"type": "Point", "coordinates": [570097.93214, 5940670.7345]}, "properties": {"kategorie": "Familienbildung und -beratung", "kategorie_2": "Mädchen- und Frauentreff", "einrichtung": "Mädchen- und Frauentreff Steilshoop", "adresse": "Gründgensstraße 28 ", "ort": "22309 Hamburg", "link": "https://www.hamburg.de/politik-und-verwaltung/behoerden/bsfb/familie/familienwegweiser/familienbildung-35490", "traeger": "Verein für Jugendpflege Steilshoop e.V.", "angebotstyp": "Familienbildung und -beratung", "quelle_layer": "34597"}}, {"type": "Feature", "geometry": {"type": "Point", "coordinates": [562956.47972, 5935640.874]}, "properties": {"kategorie": "Familienbildung und -beratung", "kategorie_2": "Stadtteilhaus/Community Center/Mehrgenerationenhaus", "einrichtung": "Mehrgenerationenhaus Hamburg-Altona", "adresse": "Alsenstraße 33 ", "ort": "22769 Hamburg", "link": "https://www.hamburg.de/politik-und-verwaltung/behoerden/bsfb/familie/familienwegweiser/familienbildung-35500", "traeger": "FLAKS e.V.", "angebotstyp": "Familienbildung und -beratung", "quelle_layer": "34597"}}, {"type": "Feature", "geometry": {"type": "Point", "coordinates": [580240.62652, 5927554.6539]}, "properties": {"kategorie": "Familienbildung und -beratung", "kategorie_2": "Mütterzentrum", "einrichtung": "Mütterzentrum Bergedorf e.V.", "adresse": "Reetwerder 11 ", "ort": "21029 Hamburg", "link": "https://www.hamburg.de/politik-und-verwaltung/behoerden/bsfb/familie/familienwegweiser/familienbildung-35493", "traeger": "Leben mit Kindern - Mütterzentrum Bergedorf e.V.", "angebotstyp": "Familienbildung und -beratung", "quelle_layer": "34597"}}, {"type": "Feature", "geometry": {"type": "Point", "coordinates": [565662.85702, 5938182.1164]}, "properties": {"kategorie": "Familienbildung und -beratung", "kategorie_2": "Weitere Einrichtung der Familienbildung", "einrichtung": "Evangelische Familienbildung Eppendorf", "adresse": "Loogeplatz 16 ", "ort": "20249 Hamburg", "link": "https://www.hamburg.de/politik-und-verwaltung/behoerden/bsfb/familie/familienwegweiser/familienbildung-35508", "traeger": "Ev.-luth. Kirchenkreis Hamburg-Ost SAJF", "angebotstyp": "Familienbildung und -beratung", "quelle_layer": "34597"}}, {"type": "Feature", "geometry": {"type": "Point", "coordinates": [573970.02332, 5940957.8648]}, "properties": {"kategorie": "Familienbildung und -beratung", "kategorie_2": "Kinder- und Familienhilfezentrum", "einrichtung": "KiFaZ Farmsen-Berne (AWO)", "adresse": "Marie-Bautz-Weg 11 ", "ort": "22159 Hamburg", "link": "https://www.hamburg.de/politik-und-verwaltung/behoerden/bsfb/familie/familienwegweiser/familienbildung-35487", "traeger": "AWO LV Hamburg e.V. (W)", "angebotstyp": "Familienbildung und -beratung", "quelle_layer": "34597"}}, {"type": "Feature", "geometry": {"type": "Point", "coordinates": [565914.01915, 5929344.8686]}, "properties": {"kategorie": "Familienbildung und -beratung", "kategorie_2": "Elternschule", "einrichtung": "Elternschule Wilhelmsburg", "adresse": "Zeidlerstraße 75 ", "ort": "21107 Hamburg", "link": "https://www.hamburg.de/politik-und-verwaltung/behoerden/bsfb/familie/familienwegweiser/familienbildung-35459", "traeger": "Bezirksamt Hamburg-Mitte", "angebotstyp": "Familienbildung und -beratung", "quelle_layer": "34597"}}, {"type": "Feature", "geometry": {"type": "Point", "coordinates": [573285.49587, 5932710.1513]}, "properties": {"kategorie": "Familienbildung und -beratung", "kategorie_2": "Elternschule", "einrichtung": "Elternschule Billstedt", "adresse": "Billstedter Hauptstraße 80 ", "ort": "22117 Hamburg", "link": "https://www.hamburg.de/politik-und-verwaltung/behoerden/bsfb/familie/familienwegweiser/familienbildung-35462", "traeger": "Bezirksamt Hamburg-Mitte", "angebotstyp": "Familienbildung und -beratung", "quelle_layer": "34597"}}, {"type": "Feature", "geometry": {"type": "Point", "coordinates": [562707.63323, 5934658.2934]}, "properties": {"kategorie": "Familienbildung und -beratung", "kategorie_2": "Elternschule", "einrichtung": "Elternschule Altona", "adresse": "Max-Brauer-Allee 134 ", "ort": "22765 Hamburg", "link": "https://www.hamburg.de/politik-und-verwaltung/behoerden/bsfb/familie/familienwegweiser/familienbildung-35478", "traeger": "Diakonisches Werk Hamburg-West/Südholstein", "angebotstyp": "Familienbildung und -beratung", "quelle_layer": "34597"}}, {"type": "Feature", "geometry": {"type": "Point", "coordinates": [576079.14838, 5931943.2707]}, "properties": {"kategorie": "Familienbildung und -beratung", "kategorie_2": "Elternschule", "einrichtung": "Elternschule Mümmelmannsberg", "adresse": "Kirchnerweg 6 ", "ort": "22115 Hamburg", "link": "https://www.hamburg.de/politik-und-verwaltung/behoerden/bsfb/familie/familienwegweiser/familienbildung-35461", "traeger": "Bezirksamt Hamburg-Mitte", "angebotstyp": "Familienbildung und -beratung", "quelle_layer": "34597"}}, {"type": "Feature", "geometry": {"type": "Point", "coordinates": [575063.65917, 5941909.5524]}, "properties": {"kategorie": "Familienbildung und -beratung", "kategorie_2": "Elternschule", "einrichtung": "Elternschule Farmsen-Berne", "adresse": "Bekassinenau 126 ", "ort": "22147 Hamburg", "link": "https://www.hamburg.de/politik-und-verwaltung/behoerden/bsfb/familie/familienwegweiser/familienbildung-35474", "traeger": "Bezirksamt Wandsbek", "angebotstyp": "Familienbildung und -beratung", "quelle_layer": "34597"}}, {"type": "Feature", "geometry": {"type": "Point", "coordinates": [577963.52533, 5940349.4137]}, "properties": {"kategorie": "Familienbildung und -beratung", "kategorie_2": "Mädchen- und Frauentreff", "einrichtung": "Frauen- und Mädchentreff Großlohe", "adresse": "Mehlandsredder 9 h", "ort": "22143 Hamburg", "link": "https://www.hamburg.de/politik-und-verwaltung/behoerden/bsfb/familie/familienwegweiser/familienbildung-35489", "traeger": "Verein Jugendarbeit in Rahlstedt e.V.", "angebotstyp": "Familienbildung und -beratung", "quelle_layer": "34597"}}, {"type": "Feature", "geometry": {"type": "Point", "coordinates": [573174.43737, 5935079.6507]}, "properties": {"kategorie": "Familienbildung und -beratung", "kategorie_2": "Elternschule", "einrichtung": "Elternschule Horner Geest", "adresse": "Manshardtstraße 105 g", "ort": "22119 Hamburg", "link": "https://www.hamburg.de/politik-und-verwaltung/behoerden/bsfb/familie/familienwegweiser/familienbildung-35463", "traeger": "Bezirksamt Hamburg-Mitte", "angebotstyp": "Familienbildung und -beratung", "quelle_layer": "34597"}}, {"type": "Feature", "geometry": {"type": "Point", "coordinates": [568344.39069, 5935306.736]}, "properties": {"kategorie": "Familienbildung und -beratung", "kategorie_2": "Weitere Einrichtung der Familienbildung", "einrichtung": "Wellcome - Barmbek-Uhlenhorst", "adresse": "Lübecker Straße 101 ", "ort": "22087 Hamburg", "link": "https://www.hamburg.de/politik-und-verwaltung/behoerden/bsfb/familie/familienwegweiser/familienbildung-35506", "traeger": "Katholische Familienbildungsstätte Hamburg e.V.", "angebotstyp": "Familienbildung und -beratung", "quelle_layer": "34597"}}, {"type": "Feature", "geometry": {"type": "Point", "coordinates": [567756.75933, 5935387.1626]}, "properties": {"kategorie": "Familienbildung und -beratung", "kategorie_2": "Mütterzentrum", "einrichtung": "KinEz Hohenfelde e.V.", "adresse": "Ifflandstraße 69 ", "ort": "22087 Hamburg", "link": "https://www.hamburg.de/politik-und-verwaltung/behoerden/bsfb/familie/familienwegweiser/familienbildung-35491", "traeger": "Mütterzentrum Hohenfelde e.V.", "angebotstyp": "Familienbildung und -beratung", "quelle_layer": "34597"}}, {"type": "Feature", "geometry": {"type": "Point", "coordinates": [558061.00048, 5926103.2169]}, "properties": {"kategorie": "Familienbildung und -beratung", "kategorie_2": "Elternschule", "einrichtung": "Elternschule Süderelbe", "adresse": "Rehrstieg 60 ", "ort": "21147 Hamburg", "link": "https://www.hamburg.de/politik-und-verwaltung/behoerden/bsfb/familie/familienwegweiser/familienbildung-35471", "traeger": "Bezirksamt Harburg", "angebotstyp": "Familienbildung und -beratung", "quelle_layer": "34597"}}, {"type": "Feature", "geometry": {"type": "Point", "coordinates": [576778.49348, 5927160.3478]}, "properties": {"kategorie": "Familienbildung und -beratung", "kategorie_2": "Kinder- und Familienhilfezentrum", "einrichtung": "KiFaz Neuallermöhe", "adresse": "Otto-Grot-Straße 90 ", "ort": "21035 Hamburg", "link": "https://www.hamburg.de/politik-und-verwaltung/behoerden/bsfb/familie/familienwegweiser/familienbildung-35484", "traeger": "Sprungbrett e. V.", "angebotstyp": "Familienbildung und -beratung", "quelle_layer": "34597"}}, {"type": "Feature", "geometry": {"type": "Point", "coordinates": [570347.51848, 5936730.1971]}, "properties": {"kategorie": "Familienbildung und -beratung", "kategorie_2": "Sonstiges", "einrichtung": "Leben mit Behinderung Hamburg (Projekt Wandsbek/Jenfeld)", "adresse": "Wandsbeker Königstraße 51 ", "ort": "22041 Hamburg", "link": "https://www.hamburg.de/politik-und-verwaltung/behoerden/bsfb/familie/familienwegweiser/familienbildung-35494", "traeger": "Leben mit Behinderung Hamburg Sozialeinrichtungen gemeinnützige GmbH", "angebotstyp": "Familienbildung und -beratung", "quelle_layer": "34597"}}, {"type": "Feature", "geometry": {"type": "Point", "coordinates": [575843.84592, 5937861.7344]}, "properties": {"kategorie": "Familienbildung und -beratung", "kategorie_2": "Elternschule", "einrichtung": "Elternschule Hohenhorst-Rahlstedt", "adresse": "Schöneberger Straße 44 ", "ort": "22149 Hamburg", "link": "https://www.hamburg.de/politik-und-verwaltung/behoerden/bsfb/familie/familienwegweiser/familienbildung-35473", "traeger": "Bezirksamt Wandsbek", "angebotstyp": "Familienbildung und -beratung", "quelle_layer": "34597"}}, {"type": "Feature", "geometry": {"type": "Point", "coordinates": [556509.61065, 5938159.1481]}, "properties": {"kategorie": "Familienbildung und -beratung", "kategorie_2": "Stadtteilhaus/Community Center/Mehrgenerationenhaus", "einrichtung": "Connect", "adresse": "Bornheide 76 ", "ort": "22549 Hamburg", "link": "https://www.hamburg.de/politik-und-verwaltung/behoerden/bsfb/familie/familienwegweiser/familienbildung-35504", "traeger": "Vereinigung Pestalozzi gGmbH", "angebotstyp": "Familienbildung und -beratung", "quelle_layer": "34597"}}, {"type": "Feature", "geometry": {"type": "Point", "coordinates": [558240.778, 5925943.0928]}, "properties": {"kategorie": "Familienbildung und -beratung", "kategorie_2": "Stadtteilhaus/Community Center/Mehrgenerationenhaus", "einrichtung": "Stadtteilhaus Neuwiedenthal", "adresse": "Stubbenhof 15 ", "ort": "21147 Hamburg", "link": "https://www.hamburg.de/politik-und-verwaltung/behoerden/bsfb/familie/familienwegweiser/familienbildung-35503", "traeger": "Bezirksamt Harburg", "angebotstyp": "Familienbildung und -beratung", "quelle_layer": "34597"}}, {"type": "Feature", "geometry": {"type": "Point", "coordinates": [560122.62033, 5944591.7209]}, "properties": {"kategorie": "Familienbildung und -beratung", "kategorie_2": "Mütterzentrum", "einrichtung": "Mütterzentrum Burgwedel", "adresse": "Walter-Jungleib-Straße 10 ", "ort": "22457 Hamburg", "link": "https://www.hamburg.de/politik-und-verwaltung/behoerden/bsfb/familie/familienwegweiser/familienbildung-35492", "traeger": "\"Die Mütze\" Mütterzentrum Burgwedel e.V.", "angebotstyp": "Familienbildung und -beratung", "quelle_layer": "34597"}}, {"type": "Feature", "geometry": {"type": "Point", "coordinates": [563375.55415, 5936312.537]}, "properties": {"kategorie": "Familienbildung und -beratung", "kategorie_2": "Elternschule", "einrichtung": "Elternschule Eimsbüttel", "adresse": "Doormannsweg 12 ", "ort": "20259 Hamburg", "link": "https://www.hamburg.de/politik-und-verwaltung/behoerden/bsfb/familie/familienwegweiser/familienbildung-35467", "traeger": "Bezirksamt Eimsbüttel", "angebotstyp": "Familienbildung und -beratung", "quelle_layer": "34597"}}, {"type": "Feature", "geometry": {"type": "Point", "coordinates": [559760.81458, 5940209.8505]}, "properties": {"kategorie": "Familienbildung und -beratung", "kategorie_2": "Elternschule", "einrichtung": "Elternschule Eidelstedt", "adresse": "Alte Elbgaustraße 12 ", "ort": "22523 Hamburg", "link": "https://www.hamburg.de/politik-und-verwaltung/behoerden/bsfb/familie/familienwegweiser/familienbildung-35468", "traeger": "Bezirksamt Eimsbüttel", "angebotstyp": "Familienbildung und -beratung", "quelle_layer": "34597"}}, {"type": "Feature", "geometry": {"type": "Point", "coordinates": [562587.67138, 5941639.8776]}, "properties": {"kategorie": "Familienbildung und -beratung", "kategorie_2": "Elternschule", "einrichtung": "Elternschule Niendorf", "adresse": "Friedrich-Ebert-Straße 14 ", "ort": "22459 Hamburg", "link": "https://www.hamburg.de/politik-und-verwaltung/behoerden/bsfb/familie/familienwegweiser/familienbildung-35469", "traeger": "Bezirksamt Eimsbüttel", "angebotstyp": "Familienbildung und -beratung", "quelle_layer": "34597"}}, {"type": "Feature", "geometry": {"type": "Point", "coordinates": [578681.54482, 5929658.8153]}, "properties": {"kategorie": "Familienbildung und -beratung", "kategorie_2": "Kinder- und Familienhilfezentrum", "einrichtung": "KiFaz Lohbrügge", "adresse": "Fritz-Lindemann-Weg 2 ", "ort": "21031 Hamburg", "link": "https://www.hamburg.de/politik-und-verwaltung/behoerden/bsfb/familie/familienwegweiser/familienbildung-35485", "traeger": "Sprungbrett e. V.", "angebotstyp": "Familienbildung und -beratung", "quelle_layer": "34597"}}, {"type": "Feature", "geometry": {"type": "Point", "coordinates": [563832.71364, 5924663.9068]}, "properties": {"kategorie": "Familienbildung und -beratung", "kategorie_2": "Sonstiges", "einrichtung": "Frühe Hilfen für Familien (Treffpunkthaus Heimfeld)", "adresse": "Friedrich-Naumann-Straße 9 ", "ort": "21075 Hamburg", "link": "https://www.hamburg.de/politik-und-verwaltung/behoerden/bsfb/familie/familienwegweiser/familienbildung-35495", "traeger": "Margaretenhort Kinder- und Jugendhilfe gGmbH", "angebotstyp": "Familienbildung und -beratung", "quelle_layer": "34597"}}, {"type": "Feature", "geometry": {"type": "Point", "coordinates": [556596.11817, 5938149.5048]}, "properties": {"kategorie": "Familienbildung und -beratung", "kategorie_2": "Elternschule", "einrichtung": "Elternschule Osdorf", "adresse": "Bornheide 76 c", "ort": "22549 Hamburg", "link": "https://www.hamburg.de/politik-und-verwaltung/behoerden/bsfb/familie/familienwegweiser/familienbildung-35476", "traeger": "Diakonisches Werk Hamburg-West/Südholstein", "angebotstyp": "Familienbildung und -beratung", "quelle_layer": "34597"}}, {"type": "Feature", "geometry": {"type": "Point", "coordinates": [557354.50769, 5939998.453]}, "properties": {"kategorie": "Familienbildung und -beratung", "kategorie_2": "Kinder- und Familienhilfezentrum", "einrichtung": "KIFAZ Lurup", "adresse": "Netzestraße 14 a", "ort": "22547 Hamburg", "link": "https://www.hamburg.de/politik-und-verwaltung/behoerden/bsfb/familie/familienwegweiser/familienbildung-35486", "traeger": "DKSB LV Hamburg e. V.(A)", "angebotstyp": "Familienbildung und -beratung", "quelle_layer": "34597"}}, {"type": "Feature", "geometry": {"type": "Point", "coordinates": [569951.17472, 5941128.6624]}, "properties": {"kategorie": "Familienbildung und -beratung", "kategorie_2": "Elternschule", "einrichtung": "Elternschule Steilshoop", "adresse": "Gropiusring 43 a", "ort": "22309 Hamburg", "link": "https://www.hamburg.de/politik-und-verwaltung/behoerden/bsfb/familie/familienwegweiser/familienbildung-35456", "traeger": "Bezirksamt Wandsbek", "angebotstyp": "Familienbildung und -beratung", "quelle_layer": "34597"}}, {"type": "Feature", "geometry": {"type": "Point", "coordinates": [563691.43827, 5935603.7874]}, "properties": {"kategorie": "Familienbildung und -beratung", "kategorie_2": "Stadtteilhaus/Community Center/Mehrgenerationenhaus", "einrichtung": "Mehrgenerationenhaus Nachbarschatz e.V.", "adresse": "Amandastraße 58 ", "ort": "20357 Hamburg", "link": "https://www.hamburg.de/politik-und-verwaltung/behoerden/bsfb/familie/familienwegweiser/familienbildung-35502", "traeger": "Mehrgenerationenhaus Nachbarschatz e.V.", "angebotstyp": "Familienbildung und -beratung", "quelle_layer": "34597"}}, {"type": "Feature", "geometry": {"type": "Point", "coordinates": [565077.26837, 5924301.1016]}, "properties": {"kategorie": "Familienbildung und -beratung", "kategorie_2": "Sonstiges", "einrichtung": "Mütterzeit im BIFF", "adresse": "Neue Straße 59 ", "ort": "21073 Hamburg", "link": "https://www.hamburg.de/politik-und-verwaltung/behoerden/bsfb/familie/familienwegweiser/familienbildung-35496", "traeger": "Frauenkulturhaus Harburg e.V.", "angebotstyp": "Familienbildung und -beratung", "quelle_layer": "34597"}}, {"type": "Feature", "geometry": {"type": "Point", "coordinates": [560520.48008, 5942237.7228]}, "properties": {"kategorie": "Familienbildung und -beratung", "kategorie_2": "Kinder- und Familienhilfezentrum", "einrichtung": "KiFaz Schnelsen", "adresse": "Vörn Brook 9 a", "ort": "22459 Hamburg", "link": "https://www.hamburg.de/politik-und-verwaltung/behoerden/bsfb/familie/familienwegweiser/familienbildung-35482", "traeger": "Verband Kinder- und Jugendarbeit Hamburg e.V.", "angebotstyp": "Familienbildung und -beratung", "quelle_layer": "34597"}}, {"type": "Feature", "geometry": {"type": "Point", "coordinates": [571297.76454, 5940814.934]}, "properties": {"kategorie": "Familienbildung und -beratung", "kategorie_2": "Sonstiges", "einrichtung": "Soziale Gruppenarbeit Bramfeld", "adresse": "Herthastraße 16 ", "ort": "22179 Hamburg", "link": "https://www.hamburg.de/politik-und-verwaltung/behoerden/bsfb/familie/familienwegweiser/familienbildung-35499", "traeger": "Bezirksamt Wandsbek", "angebotstyp": "Familienbildung und -beratung", "quelle_layer": "34597"}}, {"type": "Feature", "geometry": {"type": "Point", "coordinates": [564926.8205, 5936911.5734]}, "properties": {"kategorie": "Familienbildung und -beratung", "kategorie_2": "Elternschule", "einrichtung": "Elternschule Am Grindel", "adresse": "Oberstraße 18 b", "ort": "20144 Hamburg", "link": "https://www.hamburg.de/politik-und-verwaltung/behoerden/bsfb/familie/familienwegweiser/familienbildung-35466", "traeger": "Bezirksamt Eimsbüttel", "angebotstyp": "Familienbildung und -beratung", "quelle_layer": "34597"}}, {"type": "Feature", "geometry": {"type": "Point", "coordinates": [567750.16288, 5926931.1555]}, "properties": {"kategorie": "Familienbildung und -beratung", "kategorie_2": "Elternschule", "einrichtung": "Elternschule Kirchdorf-Süd", "adresse": "Karl-Arnold-Ring 9 ", "ort": "21109 Hamburg", "link": "https://www.hamburg.de/politik-und-verwaltung/behoerden/bsfb/familie/familienwegweiser/familienbildung-35460", "traeger": "Bezirksamt Hamburg-Mitte", "angebotstyp": "Familienbildung und -beratung", "quelle_layer": "34597"}}, {"type": "Feature", "geometry": {"type": "Point", "coordinates": [578125.08513, 5940113.2915]}, "properties": {"kategorie": "Familienbildung und -beratung", "kategorie_2": "Kinder- und Familienhilfezentrum", "einrichtung": "KiFaZ Großlohe", "adresse": "Hoffmannstieg 7 ", "ort": "22143 Hamburg", "link": "https://www.hamburg.de/politik-und-verwaltung/behoerden/bsfb/familie/familienwegweiser/familienbildung-35483", "traeger": "Internationaler Bund (IB) W", "angebotstyp": "Familienbildung und -beratung", "quelle_layer": "34597"}}, {"type": "Feature", "geometry": {"type": "Point", "coordinates": [562313.4393, 5934256.4027]}, "properties": {"kategorie": "Familienbildung und -beratung", "kategorie_2": "Sonstiges", "einrichtung": "Schwangerschaftsberatung Iserbrook, Osdorf, Lurup", "adresse": "Schomburgstraße 120 ", "ort": "22767 Hamburg", "link": "https://www.hamburg.de/politik-und-verwaltung/behoerden/bsfb/familie/familienwegweiser/familienbildung-35498", "traeger": "SkF e.V. Hamburg", "angebotstyp": "Familienbildung und -beratung", "quelle_layer": "34597"}}, {"type": "Feature", "geometry": {"type": "Point", "coordinates": [576437.76654, 5937667.2511]}, "properties": {"kategorie": "Familienbildung und -beratung", "kategorie_2": "Mädchen- und Frauentreff", "einrichtung": "Frauen- und Mädchentreff Hohenhorst", "adresse": "Grunewaldstraße 76 ", "ort": "22149 Hamburg", "link": "https://www.hamburg.de/politik-und-verwaltung/behoerden/bsfb/familie/familienwegweiser/familienbildung-35488", "traeger": "Verein Jugendarbeit in Rahlstedt e.V.", "angebotstyp": "Familienbildung und -beratung", "quelle_layer": "34597"}}, {"type": "Feature", "geometry": {"type": "Point", "coordinates": [570827.47144, 5938162.1109]}, "properties": {"kategorie": "Familienbildung und -beratung", "kategorie_2": "Elternschule", "einrichtung": "Elternschule Dulsberg", "adresse": "Alter Teichweg 200 ", "ort": "22049 Hamburg", "link": "https://www.hamburg.de/politik-und-verwaltung/behoerden/bsfb/familie/familienwegweiser/familienbildung-35465", "traeger": "Bezirksamt Hamburg-Nord", "angebotstyp": "Familienbildung und -beratung", "quelle_layer": "34597"}}, {"type": "Feature", "geometry": {"type": "Point", "coordinates": [568999.86825, 5932349.3642]}, "properties": {"kategorie": "Familienbildung und -beratung", "kategorie_2": "Elternschule", "einrichtung": "Elternschule Rothenburgsort", "adresse": "Marckmannstraße 75 ", "ort": "20539 Hamburg", "link": "https://www.hamburg.de/politik-und-verwaltung/behoerden/bsfb/familie/familienwegweiser/familienbildung-35457", "traeger": "Bezirksamt Hamburg-Mitte", "angebotstyp": "Familienbildung und -beratung", "quelle_layer": "34597"}}, {"type": "Feature", "geometry": {"type": "Point", "coordinates": [570508.76428, 5945222.8107]}, "properties": {"kategorie": "Familienbildung und -beratung", "kategorie_2": "Weitere Einrichtung der Familienbildung", "einrichtung": "Wellcome Projekt (Ev. FaBi Poppenbüttel)", "adresse": "Poppenbütteler Weg 93 a", "ort": "22399 Hamburg", "link": "https://www.hamburg.de/politik-und-verwaltung/behoerden/bsfb/familie/familienwegweiser/familienbildung-35507", "traeger": "Ev.-luth. Kirchenkreis Hamburg-Ost SAJF", "angebotstyp": "Familienbildung und -beratung", "quelle_layer": "34597"}}, {"type": "Feature", "geometry": {"type": "Point", "coordinates": [567790.18465, 5947883.286]}, "properties": {"kategorie": "Familienbildung und -beratung", "kategorie_2": "Stadtteilhaus/Community Center/Mehrgenerationenhaus", "einrichtung": "Stadtteilhaus Bornbachstieg", "adresse": "Holitzberg 139 a", "ort": "22417 Hamburg", "link": "https://www.hamburg.de/politik-und-verwaltung/behoerden/bsfb/familie/familienwegweiser/familienbildung-35501", "traeger": "Bezirksamt Hamburg-Nord", "angebotstyp": "Familienbildung und -beratung", "quelle_layer": "34597"}}, {"type": "Feature", "geometry": {"type": "Point", "coordinates": [574532.38104, 5936397.6973]}, "properties": {"kategorie": "Familienbildung und -beratung", "kategorie_2": "Elternschule", "einrichtung": "Elternschule Jenfeld", "adresse": "Rodigallee 233 ", "ort": "22043 Hamburg", "link": "https://www.hamburg.de/politik-und-verwaltung/behoerden/bsfb/familie/familienwegweiser/familienbildung-35477", "traeger": "Bezirksamt Wandsbek", "angebotstyp": "Familienbildung und -beratung", "quelle_layer": "34597"}}, {"type": "Feature", "geometry": {"type": "Point", "coordinates": [569974.43844, 5935776.6126]}, "properties": {"kategorie": "Familienbildung und -beratung", "kategorie_2": "Sonstiges", "einrichtung": "Handeln gegen sexualisierte Gewalt gegen Mädchen", "adresse": "Hammer Steindamm 44 ", "ort": "22089 Hamburg", "link": "https://www.hamburg.de/politik-und-verwaltung/behoerden/bsfb/familie/familienwegweiser/familienbildung-35497", "traeger": "Allerleirauh e.V.", "angebotstyp": "Familienbildung und -beratung", "quelle_layer": "34597"}}, {"type": "Feature", "geometry": {"type": "Point", "coordinates": [558137.17701, 5931901.3563]}, "properties": {"kategorie": "Familienbildung und -beratung", "kategorie_2": "Elternschule", "einrichtung": "Elternschule Finkenwerder", "adresse": "Norderschulweg 7 ", "ort": "21129 Hamburg", "link": "https://www.hamburg.de/politik-und-verwaltung/behoerden/bsfb/familie/familienwegweiser/familienbildung-35458", "traeger": "Bezirksamt Hamburg-Mitte", "angebotstyp": "Familienbildung und -beratung", "quelle_layer": "34597"}}, {"type": "Feature", "geometry": {"type": "Point", "coordinates": [579690.99619, 5928272.6559]}, "properties": {"kategorie": "Familienbildung und -beratung", "kategorie_2": "Weitere Einrichtung der Familienberatung", "einrichtung": "Kirchliche Beratungsstelle für Erziehungs-, Ehe- und Lebensfragen", "adresse": "Lohbrügger Kirchstraße 9 ", "ort": "21033 Hamburg", "link": "https://www.hamburg.de/politik-und-verwaltung/behoerden/bsfb/familie/familienwegweiser/familienbildung-35505", "traeger": "DiakonieHilfswerk Hamburg", "angebotstyp": "Familienbildung und -beratung", "quelle_layer": "34597"}}, {"type": "Feature", "geometry": {"type": "Point", "coordinates": [555060.84665, 5936915.6402]}, "properties": {"kategorie": "Familienteams", "einrichtung": "FamT Altona West Iserbrook", "adresse": "Heerbrook 8 ", "ort": "22589 Hamburg", "link": "https://www.hamburg.de/politik-und-verwaltung/behoerden/bsfb/familie/familienwegweiser", "traeger": "DKSB LV Hamburg e.V.", "angebotstyp": "Familienteam", "quelle_layer": "19947"}}, {"type": "Feature", "geometry": {"type": "Point", "coordinates": [565139.18842, 5923989.6275]}, "properties": {"kategorie": "Familienteams", "einrichtung": "FamT Harburg Margaretenhort", "adresse": "Hölertwiete 5 ", "ort": "21073 Hamburg", "link": "https://www.hamburg.de/politik-und-verwaltung/behoerden/bsfb/familie/familienwegweiser", "traeger": "Margaretenhort Kinder- und Jugendhilfe gGmbH", "angebotstyp": "Familienteam", "quelle_layer": "19947"}}, {"type": "Feature", "geometry": {"type": "Point", "coordinates": [556617.50817, 5924822.5523]}, "properties": {"kategorie": "Familienteams", "einrichtung": "FamT Süderelbe", "adresse": "Neugrabener Markt 5 ", "ort": "21149 Hamburg", "link": "https://www.hamburg.de/politik-und-verwaltung/behoerden/bsfb/familie/familienwegweiser", "traeger": "Bezirksamt Harburg (FamT)", "angebotstyp": "Familienteam", "quelle_layer": "19947"}}, {"type": "Feature", "geometry": {"type": "Point", "coordinates": [575261.97482, 5942514.9421]}, "properties": {"kategorie": "Familienteams", "einrichtung": "FamT Farmsen/Berne", "adresse": "Berner Heerweg 366 ", "ort": "22159 Hamburg", "link": "https://www.hamburg.de/politik-und-verwaltung/behoerden/bsfb/familie/familienwegweiser", "traeger": "Pestalozzi-Stiftung Hamburg", "angebotstyp": "Familienteam", "quelle_layer": "19947"}}, {"type": "Feature", "geometry": {"type": "Point", "coordinates": [568674.50507, 5932569.6083]}, "properties": {"kategorie": "Familienteams", "einrichtung": "FamT Kap Rothenburgsort", "adresse": "Billhorner Mühlenweg 1 ", "ort": "20539 Hamburg", "link": "https://www.hamburg.de/politik-und-verwaltung/behoerden/bsfb/familie/familienwegweiser", "traeger": "Kinderhaus am Pinnasberg e.V.", "angebotstyp": "Familienteam", "quelle_layer": "19947"}}, {"type": "Feature", "geometry": {"type": "Point", "coordinates": [578697.1099, 5927492.216]}, "properties": {"kategorie": "Familienteams", "einrichtung": "FamT Nestlotsen Bergedorf", "adresse": "Oberer Landweg 2 ", "ort": "21033 Hamburg", "link": "https://www.hamburg.de/politik-und-verwaltung/behoerden/bsfb/familie/familienwegweiser", "traeger": "Pestalozzi-Stiftung Hamburg", "angebotstyp": "Familienteam", "quelle_layer": "19947"}}, {"type": "Feature", "geometry": {"type": "Point", "coordinates": [570566.93805, 5936220.7361]}, "properties": {"kategorie": "Familienteams", "einrichtung": "FamT Wandsbek Kern", "adresse": "Bärenallee 33 a", "ort": "22041 Hamburg", "link": "https://www.hamburg.de/politik-und-verwaltung/behoerden/bsfb/familie/familienwegweiser", "traeger": "Aladin gGmbH", "angebotstyp": "Familienteam", "quelle_layer": "19947"}}, {"type": "Feature", "geometry": {"type": "Point", "coordinates": [565220.75614, 5934369.9116]}, "properties": {"kategorie": "Familienteams", "einrichtung": "FamT HH-Mitte zentral", "adresse": "Caffamacherreihe 1 ", "ort": "20355 Hamburg", "link": "https://www.hamburg.de/politik-und-verwaltung/behoerden/bsfb/familie/familienwegweiser", "traeger": "Bezirksamt HH-Mitte", "angebotstyp": "Familienteam", "quelle_layer": "19947"}}, {"type": "Feature", "geometry": {"type": "Point", "coordinates": [572840.52896, 5942747.677]}, "properties": {"kategorie": "Familienteams", "einrichtung": "FamT Bramfeld/Steilshoop", "adresse": "Am Stühm-Süd 138 ", "ort": "22175 Hamburg", "link": "https://www.hamburg.de/politik-und-verwaltung/behoerden/bsfb/familie/familienwegweiser", "traeger": "Abendroth-Haus", "angebotstyp": "Familienteam", "quelle_layer": "19947"}}, {"type": "Feature", "geometry": {"type": "Point", "coordinates": [567790.18465, 5947883.286]}, "properties": {"kategorie": "Familienteams", "einrichtung": "FamT Langenhorn", "adresse": "Holitzberg 139 a", "ort": "22417 Hamburg", "link": "https://www.hamburg.de/politik-und-verwaltung/behoerden/bsfb/familie/familienwegweiser", "traeger": "Verband Kinder- und Jugendarbeit Hamburg e.V.", "angebotstyp": "Familienteam", "quelle_layer": "19947"}}, {"type": "Feature", "geometry": {"type": "Point", "coordinates": [567001.52877, 5927792.2776]}, "properties": {"kategorie": "Familienteams", "einrichtung": "FamT Elbinseln", "adresse": "Schwentnerring 8 a", "ort": "21109 Hamburg", "link": "https://www.hamburg.de/politik-und-verwaltung/behoerden/bsfb/familie/familienwegweiser", "traeger": "Landesbetrieb Erziehung und Beratung", "angebotstyp": "Familienteam", "quelle_layer": "19947"}}, {"type": "Feature", "geometry": {"type": "Point", "coordinates": [575638.10195, 5941547.3115]}, "properties": {"kategorie": "Familienteams", "einrichtung": "FamT Oldenfelde", "adresse": "Greifenberger Straße 67 a", "ort": "22147 Hamburg", "link": "https://www.hamburg.de/politik-und-verwaltung/behoerden/bsfb/familie/familienwegweiser", "traeger": "Vereinigung Pestalozzi", "angebotstyp": "Familienteam", "quelle_layer": "19947"}}, {"type": "Feature", "geometry": {"type": "Point", "coordinates": [575591.17676, 5938038.9416]}, "properties": {"kategorie": "Familienteams", "einrichtung": "FamT Jenfeld", "adresse": "Dahlemer Ring 1 ", "ort": "22045 Hamburg", "link": "https://www.hamburg.de/politik-und-verwaltung/behoerden/bsfb/familie/familienwegweiser", "traeger": "Abendroth-Haus", "angebotstyp": "Familienteam", "quelle_layer": "19947"}}, {"type": "Feature", "geometry": {"type": "Point", "coordinates": [569049.01413, 5936960.3584]}, "properties": {"kategorie": "Familienteams", "einrichtung": "FamT Dulsberg", "adresse": "Wohldorfer Straße 30 ", "ort": "22081 Hamburg", "link": "https://www.hamburg.de/politik-und-verwaltung/behoerden/bsfb/familie/familienwegweiser", "traeger": "Verband Kinder- und Jugendarbeit Hamburg e.V.", "angebotstyp": "Familienteam", "quelle_layer": "19947"}}, {"type": "Feature", "geometry": {"type": "Point", "coordinates": [561156.92261, 5934475.3753]}, "properties": {"kategorie": "Familienteams", "einrichtung": "FamT-ADEBAR-F43", "adresse": "Friedensallee 43 ", "ort": "22765 Hamburg", "link": "https://www.hamburg.de/politik-und-verwaltung/behoerden/bsfb/familie/familienwegweiser", "traeger": "ADEBAR - GWA St. Pauli e.V.", "angebotstyp": "Familienteam", "quelle_layer": "19947"}}, {"type": "Feature", "geometry": {"type": "Point", "coordinates": [578681.54482, 5929658.8153]}, "properties": {"kategorie": "Familienteams", "einrichtung": "FamT Lohbrügge", "adresse": "Fritz-Lindemann-Weg 2 ", "ort": "21031 Hamburg", "link": "https://www.hamburg.de/politik-und-verwaltung/behoerden/bsfb/familie/familienwegweiser", "traeger": "Sprungbrett e.V.", "angebotstyp": "Familienteam", "quelle_layer": "19947"}}, {"type": "Feature", "geometry": {"type": "Point", "coordinates": [562954.05841, 5934000.4241]}, "properties": {"kategorie": "Familienteams", "einrichtung": "FamT-ADEBAR-Altona Altstadt/-Nord", "adresse": "Louise-Schroeder-Straße 25 ", "ort": "22767 Hamburg", "link": "https://www.hamburg.de/politik-und-verwaltung/behoerden/bsfb/familie/familienwegweiser", "traeger": "ADEBAR - GWA St. Pauli e.V.", "angebotstyp": "Familienteam", "quelle_layer": "19947"}}, {"type": "Feature", "geometry": {"type": "Point", "coordinates": [576138.41362, 5931692.7465]}, "properties": {"kategorie": "Familienteams", "einrichtung": "FamT Mümmelmannsberg Billbrook", "adresse": "Feiningerstraße 14 ", "ort": "22115 Hamburg", "link": "https://www.hamburg.de/politik-und-verwaltung/behoerden/bsfb/familie/familienwegweiser", "traeger": "basis & woge e.V.", "angebotstyp": "Familienteam", "quelle_layer": "19947"}}, {"type": "Feature", "geometry": {"type": "Point", "coordinates": [573206.71505, 5933028.6151]}, "properties": {"kategorie": "Familienteams", "einrichtung": "FamT Billstedt", "adresse": "Lorenzenweg 2 b", "ort": "22111 Hamburg", "link": "https://www.hamburg.de/politik-und-verwaltung/behoerden/bsfb/familie/familienwegweiser", "traeger": "Das Rauhe Haus", "angebotstyp": "Familienteam", "quelle_layer": "19947"}}, {"type": "Feature", "geometry": {"type": "Point", "coordinates": [576778.49348, 5927160.3478]}, "properties": {"kategorie": "Familienteams", "einrichtung": "FamT Neuallermöhe/Vier- und Marschlande", "adresse": "Otto-Grot-Straße 90 ", "ort": "21035 Hamburg", "link": "https://www.hamburg.de/politik-und-verwaltung/behoerden/bsfb/familie/familienwegweiser", "traeger": "Sprungbrett e.V.", "angebotstyp": "Familienteam", "quelle_layer": "19947"}}, {"type": "Feature", "geometry": {"type": "Point", "coordinates": [570248.54424, 5945047.1095]}, "properties": {"kategorie": "Familienteams", "einrichtung": "FamT Von Anfang an Alstertal", "adresse": "Poppenbütteler Weg 197 ", "ort": "22339 Hamburg", "link": "https://www.hamburg.de/politik-und-verwaltung/behoerden/bsfb/familie/familienwegweiser", "traeger": "Abendroth-Haus", "angebotstyp": "Familienteam", "quelle_layer": "19947"}}, {"type": "Feature", "geometry": {"type": "Point", "coordinates": [575995.42017, 5937811.8769]}, "properties": {"kategorie": "Familienteams", "einrichtung": "FamT Rahlstedt", "adresse": "Schöneberger Straße 50 ", "ort": "22149 Hamburg", "link": "https://www.hamburg.de/politik-und-verwaltung/behoerden/bsfb/familie/familienwegweiser", "traeger": "Erziehungshilfe e.V.", "angebotstyp": "Familienteam", "quelle_layer": "19947"}}, {"type": "Feature", "geometry": {"type": "Point", "coordinates": [557354.50769, 5939998.453]}, "properties": {"kategorie": "Familienteams", "einrichtung": "FamT Altona West Lurup/Osdorf", "adresse": "Netzestraße 14 a", "ort": "22547 Hamburg", "link": "https://www.hamburg.de/politik-und-verwaltung/behoerden/bsfb/familie/familienwegweiser", "traeger": "DKSB LV Hamburg e.V.", "angebotstyp": "Familienteam", "quelle_layer": "19947"}}, {"type": "Feature", "geometry": {"type": "Point", "coordinates": [563108.12269, 5939659.2351]}, "properties": {"kategorie": "Familienteams", "einrichtung": "FamT Eimsbüttel", "adresse": "Grelckstraße 36 ", "ort": "22529 Hamburg", "link": "https://www.hamburg.de/politik-und-verwaltung/behoerden/bsfb/familie/familienwegweiser", "traeger": "DKSB LV Hamburg e. V.", "angebotstyp": "Familienteam", "quelle_layer": "19947"}}, {"type": "Feature", "geometry": {"type": "Point", "coordinates": [570574.52758, 5945303.024]}, "properties": {"kategorie": "Familienteams", "einrichtung": "FamT Walddörfer", "adresse": "Tegelsbarg 1 a", "ort": "22399 Hamburg", "link": "https://www.hamburg.de/politik-und-verwaltung/behoerden/bsfb/familie/familienwegweiser", "traeger": "Erziehungshilfe e.V.", "angebotstyp": "Familienteam", "quelle_layer": "19947"}}, {"type": "Feature", "geometry": {"type": "Point", "coordinates": [565041.83181, 5923627.7849]}, "properties": {"kategorie": "Familienteams", "einrichtung": "FamT Harburg", "adresse": "Bremer Straße 24 ", "ort": "21073 Hamburg", "link": "https://www.hamburg.de/politik-und-verwaltung/behoerden/bsfb/familie/familienwegweiser", "traeger": "Bezirksamt Harburg", "angebotstyp": "Familienteam", "quelle_layer": "19947"}}, {"type": "Feature", "geometry": {"type": "Point", "coordinates": [565129.64763, 5924214.9226]}, "properties": {"kategorie": "Institutionelle Erziehungsberatung", "einrichtung": "Harburg - Familien- und Erziehungsberatung", "adresse": "Hermann-Maul-Straße 5 ", "ort": "21073 Hamburg", "link": "https://www.hamburg.de/politik-und-verwaltung/behoerden/bsfb/familie/familienwegweiser/erziehungsberatungsstellen-32648", "traeger": "Jugendamt Harburg", "angebotstyp": "Institutionelle Erziehungsberatung", "quelle_layer": "19948"}}, {"type": "Feature", "geometry": {"type": "Point", "coordinates": [576701.37158, 5939863.5527]}, "properties": {"kategorie": "Institutionelle Erziehungsberatung", "einrichtung": "Rahlstedt - Erziehungs- und Familienberatungsstelle", "adresse": "Amtsstraße 22 b", "ort": "22143 Hamburg", "link": "https://www.hamburg.de/politik-und-verwaltung/behoerden/bsfb/familie/familienwegweiser/erziehungsberatungsstellen-32651", "traeger": "Jugendamt Wandsbek", "angebotstyp": "Institutionelle Erziehungsberatung", "quelle_layer": "19948"}}, {"type": "Feature", "geometry": {"type": "Point", "coordinates": [566904.71476, 5944945.706]}, "properties": {"kategorie": "Institutionelle Erziehungsberatung", "einrichtung": "Langenhorn - Beratungsstelle für Kinder, Jugendliche und Familien", "adresse": "Krohnstieg 43 ", "ort": "22415 Hamburg", "link": "https://www.hamburg.de/politik-und-verwaltung/behoerden/bsfb/familie/familienwegweiser/erziehungsberatungsstellen-32640", "traeger": "Jugendamt Hamburg Nord", "angebotstyp": "Institutionelle Erziehungsberatung", "quelle_layer": "19948"}}, {"type": "Feature", "geometry": {"type": "Point", "coordinates": [562587.67138, 5941639.8776]}, "properties": {"kategorie": "Institutionelle Erziehungsberatung", "einrichtung": "Niendorf - Beratungsstelle für Kinder, Jugendliche und Eltern", "adresse": "Friedrich-Ebert-Straße 14 ", "ort": "22459 Hamburg", "link": "https://www.hamburg.de/politik-und-verwaltung/behoerden/bsfb/familie/familienwegweiser/erziehungsberatungsstellen-32644", "traeger": "Jugendamt Eimsbüttel", "angebotstyp": "Institutionelle Erziehungsberatung", "quelle_layer": "19948"}}, {"type": "Feature", "geometry": {"type": "Point", "coordinates": [570574.52758, 5945303.024]}, "properties": {"kategorie": "Institutionelle Erziehungsberatung", "einrichtung": "Alstertal - Erziehungs-und Familienberatungsstelle Erziehungshilfe e.V.", "adresse": "Tegelsbarg 1 ", "ort": "22399 Hamburg", "link": "https://www.hamburg.de/politik-und-verwaltung/behoerden/bsfb/familie/familienwegweiser/erziehungsberatungsstellen-32645", "traeger": "Erziehungshilfe e.V.", "angebotstyp": "Institutionelle Erziehungsberatung", "quelle_layer": "19948"}}, {"type": "Feature", "geometry": {"type": "Point", "coordinates": [560550.298, 5942129.639]}, "properties": {"kategorie": "Institutionelle Erziehungsberatung", "einrichtung": "Niendorf - Beratungsstelle für Kinder, Jugendliche und Eltern", "adresse": "Graf Johann Weg 38 ", "ort": "22459 Hamburg", "link": "https://www.hamburg.de/politik-und-verwaltung/behoerden/bsfb/familie/familienwegweiser/erziehungsberatungsstellen-32658", "traeger": "Jugendamt Eimsbüttel", "angebotstyp": "Institutionelle Erziehungsberatung", "quelle_layer": "19948"}}, {"type": "Feature", "geometry": {"type": "Point", "coordinates": [550419.615, 5937289.295]}, "properties": {"kategorie": "Institutionelle Erziehungsberatung", "einrichtung": "Erziehungsberatungsstelle Altona-West", "adresse": "Grete-Nevermann-Weg 24 ", "ort": "22559 Hamburg", "link": "https://www.hamburg.de/politik-und-verwaltung/behoerden/bsfb/familie/familienwegweiser/erziehungsberatungsstellen-32659", "traeger": "DiakonieHilfswerk Hamburg", "angebotstyp": "Institutionelle Erziehungsberatung", "quelle_layer": "19948"}}, {"type": "Feature", "geometry": {"type": "Point", "coordinates": [569049.01413, 5936960.3584]}, "properties": {"kategorie": "Institutionelle Erziehungsberatung", "einrichtung": "Barmbek - Beratungsstelle für Kinder, Jugendliche und Familien", "adresse": "Wohldorfer Straße 30 ", "ort": "22081 Hamburg", "link": "https://www.hamburg.de/politik-und-verwaltung/behoerden/bsfb/familie/familienwegweiser/erziehungsberatungsstellen-32641", "traeger": "Jugendamt Hamburg Nord", "angebotstyp": "Institutionelle Erziehungsberatung", "quelle_layer": "19948"}}, {"type": "Feature", "geometry": {"type": "Point", "coordinates": [569100.59452, 5934682.5096]}, "properties": {"kategorie": "Institutionelle Erziehungsberatung", "einrichtung": "Erziehungsberatungsstelle Burgstraße Kinderschutzbund Hamburg", "adresse": "Sievekingdamm 3 ", "ort": "20535 Hamburg", "link": "https://www.hamburg.de/politik-und-verwaltung/behoerden/bsfb/familie/familienwegweiser/erziehungsberatungsstellen-32646", "traeger": "DKSB LV Hamburg e. V.", "angebotstyp": "Institutionelle Erziehungsberatung", "quelle_layer": "19948"}}, {"type": "Feature", "geometry": {"type": "Point", "coordinates": [565727.9249, 5930206.1618]}, "properties": {"kategorie": "Institutionelle Erziehungsberatung", "einrichtung": "Wilhelmsburg - Beratungsstelle für Kinder, Jugendliche und Eltern", "adresse": "Vogelhüttendeich 81 ", "ort": "21107 Hamburg", "link": "https://www.hamburg.de/politik-und-verwaltung/behoerden/bsfb/familie/familienwegweiser/erziehungsberatungsstellen-32654", "traeger": "Jugendamt HH-Mitte", "angebotstyp": "Institutionelle Erziehungsberatung", "quelle_layer": "19948"}}, {"type": "Feature", "geometry": {"type": "Point", "coordinates": [565752.798, 5939297.804]}, "properties": {"kategorie": "Institutionelle Erziehungsberatung", "einrichtung": "Langenhorn - Beratungsstelle für Kinder, Jugendliche und Familien", "adresse": "Bebellallee 21 ", "ort": "20249 Hamburg", "link": "https://www.hamburg.de/politik-und-verwaltung/behoerden/bsfb/familie/familienwegweiser/erziehungsberatungsstellen-32657", "traeger": "Jugendamt Hamburg Nord", "angebotstyp": "Institutionelle Erziehungsberatung", "quelle_layer": "19948"}}, {"type": "Feature", "geometry": {"type": "Point", "coordinates": [556709.692, 5925444.754]}, "properties": {"kategorie": "Institutionelle Erziehungsberatung", "einrichtung": "Ev. Beratungsstelle Süderelbe für Erziehungs-, Familien-, Paar- und Lebensberatung", "adresse": "Am Johannisland 2 ", "ort": "21147 Hamburg", "link": "https://www.hamburg.de/politik-und-verwaltung/behoerden/bsfb/familie/familienwegweiser/erziehungsberatungsstellen-32660", "traeger": "Ev.-luth. Kirchenkreis Hamburg-Ost", "angebotstyp": "Institutionelle Erziehungsberatung", "quelle_layer": "19948"}}, {"type": "Feature", "geometry": {"type": "Point", "coordinates": [564983.02902, 5923871.9866]}, "properties": {"kategorie": "Institutionelle Erziehungsberatung", "einrichtung": "Harburg - Arbeiterwohlfahrt Landesverband Hamburg e. V. Erziehungsberatungsstelle", "adresse": "Julius-Ludowieg-Straße 9 ", "ort": "21073 Hamburg", "link": "https://www.hamburg.de/politik-und-verwaltung/behoerden/bsfb/familie/familienwegweiser/erziehungsberatungsstellen-32642", "traeger": "AWO EB Harburg", "angebotstyp": "Institutionelle Erziehungsberatung", "quelle_layer": "19948"}}, {"type": "Feature", "geometry": {"type": "Point", "coordinates": [578521.01827, 5927634.1684]}, "properties": {"kategorie": "Institutionelle Erziehungsberatung", "einrichtung": "Bergedorf - Beratungsstelle für Kinder, Jugendliche und Eltern", "adresse": "Billwerder Billdeich 648 a", "ort": "21033 Hamburg", "link": "https://www.hamburg.de/politik-und-verwaltung/behoerden/bsfb/familie/familienwegweiser/erziehungsberatungsstellen-32653", "traeger": "Fachamt SR Bergedorf", "angebotstyp": "Institutionelle Erziehungsberatung", "quelle_layer": "19948"}}, {"type": "Feature", "geometry": {"type": "Point", "coordinates": [576778.49348, 5927160.3478]}, "properties": {"kategorie": "Institutionelle Erziehungsberatung", "einrichtung": "Bergedorf - Erziehungsberatungsstelle commit", "adresse": "Otto-Grot-Straße 90 ", "ort": "21035 Hamburg", "link": "https://www.hamburg.de/politik-und-verwaltung/behoerden/bsfb/familie/familienwegweiser/erziehungsberatungsstellen-32643", "traeger": "Sprungbrett e. V.", "angebotstyp": "Institutionelle Erziehungsberatung", "quelle_layer": "19948"}}, {"type": "Feature", "geometry": {"type": "Point", "coordinates": [562793.3446, 5934196.7836]}, "properties": {"kategorie": "Institutionelle Erziehungsberatung", "einrichtung": "Altona - Beratungsstelle für Kinder, Jugendliche und Eltern", "adresse": "Virchowstraße 50 ", "ort": "22767 Hamburg", "link": "https://www.hamburg.de/politik-und-verwaltung/behoerden/bsfb/familie/familienwegweiser/erziehungsberatungsstellen-32639", "traeger": "Jugendamt Altona", "angebotstyp": "Institutionelle Erziehungsberatung", "quelle_layer": "19948"}}, {"type": "Feature", "geometry": {"type": "Point", "coordinates": [571752.02116, 5936198.3401]}, "properties": {"kategorie": "Institutionelle Erziehungsberatung", "einrichtung": "Wandsbek - Erziehungs- und Familienberatungsstelle", "adresse": "Bovestraße 40 ", "ort": "22043 Hamburg", "link": "https://www.hamburg.de/politik-und-verwaltung/behoerden/bsfb/familie/familienwegweiser/erziehungsberatungsstellen-32638", "traeger": "Jugendamt Wandsbek", "angebotstyp": "Institutionelle Erziehungsberatung", "quelle_layer": "19948"}}, {"type": "Feature", "geometry": {"type": "Point", "coordinates": [556624.85903, 5938110.1284]}, "properties": {"kategorie": "Institutionelle Erziehungsberatung", "einrichtung": "Erziehungsberatungsstelle Altona-West", "adresse": "Bornheide 76 e", "ort": "22549 Hamburg", "link": "https://www.hamburg.de/politik-und-verwaltung/behoerden/bsfb/familie/familienwegweiser/erziehungsberatungsstellen-32649", "traeger": "DiakonieHilfswerk Hamburg", "angebotstyp": "Institutionelle Erziehungsberatung", "quelle_layer": "19948"}}, {"type": "Feature", "geometry": {"type": "Point", "coordinates": [563059.6187, 5936819.1321]}, "properties": {"kategorie": "Institutionelle Erziehungsberatung", "einrichtung": "Eimsbüttel - Beratungsstelle für Kinder-, Jugendliche und Eltern", "adresse": "Osterstraße 116 ", "ort": "20259 Hamburg", "link": "https://www.hamburg.de/politik-und-verwaltung/behoerden/bsfb/familie/familienwegweiser/erziehungsberatungsstellen-32647", "traeger": "Jugendamt Eimsbüttel", "angebotstyp": "Institutionelle Erziehungsberatung", "quelle_layer": "19948"}}, {"type": "Feature", "geometry": {"type": "Point", "coordinates": [573970.02332, 5940957.8648]}, "properties": {"kategorie": "Institutionelle Erziehungsberatung", "einrichtung": "Farmsen-Berne, Walddörfer - Arbeiterwohlfahrt Landesverband Hamburg e. V. Erziehungsberatung", "adresse": "Marie-Bautz-Weg 11 ", "ort": "22159 Hamburg", "link": "https://www.hamburg.de/politik-und-verwaltung/behoerden/bsfb/familie/familienwegweiser/erziehungsberatungsstellen-32656", "traeger": "AWO EB Wandsbek", "angebotstyp": "Institutionelle Erziehungsberatung", "quelle_layer": "19948"}}, {"type": "Feature", "geometry": {"type": "Point", "coordinates": [575995.42017, 5937811.8769]}, "properties": {"kategorie": "Institutionelle Erziehungsberatung", "einrichtung": "Hohenhorst - Erziehungs- und Familienberatungsstelle Erziehungshilfe e.V.", "adresse": "Schöneberger Straße 50 ", "ort": "22149 Hamburg", "link": "https://www.hamburg.de/politik-und-verwaltung/behoerden/bsfb/familie/familienwegweiser/erziehungsberatungsstellen-32650", "traeger": "Erziehungshilfe e.V.", "angebotstyp": "Institutionelle Erziehungsberatung", "quelle_layer": "19948"}}, {"type": "Feature", "geometry": {"type": "Point", "coordinates": [558058.55086, 5926086.4973]}, "properties": {"kategorie": "Institutionelle Erziehungsberatung", "einrichtung": "Ev. Beratungsstelle Süderelbe für Erziehungs-, Familien-, Paar- und Lebensberatung", "adresse": "Rehrstieg 58 ", "ort": "21147 Hamburg", "link": "https://www.hamburg.de/politik-und-verwaltung/behoerden/bsfb/familie/familienwegweiser/erziehungsberatungsstellen-32652", "traeger": "Ev.-luth. Kirchenkreis Hamburg-Ost", "angebotstyp": "Institutionelle Erziehungsberatung", "quelle_layer": "19948"}}, {"type": "Feature", "geometry": {"type": "Point", "coordinates": [570097.93214, 5940670.7345]}, "properties": {"kategorie": "Institutionelle Erziehungsberatung", "einrichtung": "Steilshoop - Erziehungs- und Familienberatung", "adresse": "Gründgensstraße 28 ", "ort": "22309 Hamburg", "link": "https://www.hamburg.de/politik-und-verwaltung/behoerden/bsfb/familie/familienwegweiser/erziehungsberatungsstellen-32655", "traeger": "Jugendamt Wandsbek", "angebotstyp": "Institutionelle Erziehungsberatung", "quelle_layer": "19948"}}, {"type": "Feature", "geometry": {"type": "Point", "coordinates": [569934.129, 5934654.626]}, "properties": {"kategorie": "Konfessionelle Familienbildungsstätte", "einrichtung": "Ev. Familien-Bildungsstätten Hamm-Horn/Bergedorf", "adresse": "Loogeplatz 14 ", "ort": "20249 Hamburg", "link": "https://www.fbs-hamburg.de/bergedorf/", "traeger": "Ev.-Luth. Kirchenkreis Hamburg-Ost", "angebotstyp": "Konfessionelle Familienbildungsstätte", "quelle_layer": "19950"}}, {"type": "Feature", "geometry": {"type": "Point", "coordinates": [563514.017, 5939482.394]}, "properties": {"kategorie": "Konfessionelle Familienbildungsstätte", "einrichtung": "Ev. Familien-Bildungsstätten Niendorf-Lokstedt", "adresse": "Stapelstraße 8 a", "ort": "22539 Hamburg", "link": "https://www.fbs-hamburg.de/niendorf/", "traeger": "Ev.-Luth. Kirchenkreis Hamburg-West/Südholstein ", "angebotstyp": "Konfessionelle Familienbildungsstätte", "quelle_layer": "19950"}}, {"type": "Feature", "geometry": {"type": "Point", "coordinates": [565666.089, 5938174.317]}, "properties": {"kategorie": "Konfessionelle Familienbildungsstätte", "einrichtung": "Ev. Familien-Bildungsstätten Poppenbüttel", "adresse": "Loogeplatz 14 ", "ort": "20249 Hamburg", "link": "https://www.fbs-hamburg.de/poppenbuettel/", "traeger": "Ev.-Luth. Kirchenkreis Hamburg-Ost", "angebotstyp": "Konfessionelle Familienbildungsstätte", "quelle_layer": "19950"}}, {"type": "Feature", "geometry": {"type": "Point", "coordinates": [553858.73, 5934993.22]}, "properties": {"kategorie": "Konfessionelle Familienbildungsstätte", "einrichtung": "Ev. Familien-Bildungsstätte Blankenese", "adresse": "Mühlenberger Weg 60 ", "ort": "22587 Hamburg", "link": "https://www.fbs-hamburg.de/blankenese/", "traeger": "Ev.-Luth. Kirchenkreis Hamburg-West/Südholstein ", "angebotstyp": "Konfessionelle Familienbildungsstätte", "quelle_layer": "19950"}}, {"type": "Feature", "geometry": {"type": "Point", "coordinates": [565139.211, 5923989.676]}, "properties": {"kategorie": "Konfessionelle Familienbildungsstätte", "einrichtung": "Ev. Familien-Bildungsstätten Harburg", "adresse": "Hölertwiete 5 ", "ort": "21073 Hamburg", "link": "https://www.fbs-hamburg.de/harburg/", "traeger": "Ev.-Luth. Kirchenkreis Hamburg-Ost", "angebotstyp": "Konfessionelle Familienbildungsstätte", "quelle_layer": "19950"}}, {"type": "Feature", "geometry": {"type": "Point", "coordinates": [565666.089, 5938174.317]}, "properties": {"kategorie": "Konfessionelle Familienbildungsstätte", "einrichtung": "Evangelische Familienbildung Eppendorf", "adresse": "Loogeplatz 14 ", "ort": "20249 Hamburg", "link": "https://www.fbs-hamburg.de/eppendorf/", "traeger": "Ev.-Luth. Kirchenkreis Hamburg-Ost", "angebotstyp": "Konfessionelle Familienbildungsstätte", "quelle_layer": "19950"}}, {"type": "Feature", "geometry": {"type": "Point", "coordinates": [568344.407, 5935306.716]}, "properties": {"kategorie": "Konfessionelle Familienbildungsstätte", "einrichtung": "Kath. Frauen- und Familienbildungsstätte", "adresse": "Lübecker Straße 101 ", "ort": "22087 Hamburg", "link": "https://www.familienbildung-hh.de/", "traeger": "Katholische Familienbildungsstätte Hamburg e.V.", "angebotstyp": "Konfessionelle Familienbildungsstätte", "quelle_layer": "19950"}}]}