{"type": "FeatureCollection", "name": "jugendorte", "crs": {"type": "name", "properties": {"name": "urn:ogc:def:crs:EPSG::25832"}}, "features": [{"type": "Feature", "geometry": {"type": "Point", "coordinates": [561534.572, 5938767.659]}, "properties": {"einrichtung": "Haus der Jugend Stellingen", "adresse": "Sportplatzring 71", "ort": "22527 Hamburg", "traeger": "Bezirksamt Hamburg-Eimsbüttel", "angebotstyp": "Haus der Jugend", "quelle_layer": "33505"}}, {"type": "Feature", "geometry": {"type": "Point", "coordinates": [565746.523, 5939322.944]}, "properties": {"einrichtung": "Haus der Jugend Lattenkamp", "adresse": "Bebelallee 22", "ort": "22299 Hamburg", "traeger": "Bezirksamt Hamburg-Nord", "angebotstyp": "Haus der Jugend", "quelle_layer": "33505"}}, {"type": "Feature", "geometry": {"type": "Point", "coordinates": [562760.098, 5943531.641]}, "properties": {"einrichtung": "Haus der Jugend Niendorf", "adresse": "Vielohweg 152", "ort": "22455 Hamburg", "traeger": "Bezirksamt Hamburg-Eimsbüttel", "angebotstyp": "Haus der Jugend", "quelle_layer": "33505"}}, {"type": "Feature", "geometry": {"type": "Point", "coordinates": [570545.212, 5945477.479]}, "properties": {"einrichtung": "Haus der Jugend Tegelsbarg", "adresse": "Tegelsbarg 2b", "ort": "22399 Hamburg", "traeger": "Bezirksamt Hamburg-Wandsbek", "angebotstyp": "Haus der Jugend", "quelle_layer": "33505"}}, {"type": "Feature", "geometry": {"type": "Point", "coordinates": [566905.661, 5945347.83]}, "properties": {"einrichtung": "Haus der Jugend Eberhofstieg", "adresse": "Eberhofstieg 22", "ort": "22415 Hamburg", "traeger": "Bezirksamt Hamburg-Nord", "angebotstyp": "Haus der Jugend", "quelle_layer": "33505"}}, {"type": "Feature", "geometry": {"type": "Point", "coordinates": [570827.476, 5938162.096]}, "properties": {"einrichtung": "Haus der Jugend Alter Teichweg", "adresse": "Alter Teichweg 200", "ort": "22049 Hamburg", "traeger": "Bezirksamt Hamburg-Nord", "angebotstyp": "Haus der Jugend", "quelle_layer": "33505"}}, {"type": "Feature", "geometry": {"type": "Point", "coordinates": [575670.165, 5938052.151]}, "properties": {"einrichtung": "Haus der Jugend Hohenhorst", "adresse": "Dahlemer Ring 3a", "ort": "22045 Hamburg", "traeger": "Bezirksamt Hamburg-Wandsbek", "angebotstyp": "Haus der Jugend", "quelle_layer": "33505"}}, {"type": "Feature", "geometry": {"type": "Point", "coordinates": [564691.228, 5923360.698]}, "properties": {"einrichtung": "Haus der Jugend Steinikestraße", "adresse": "Steinikestraße 20", "ort": "21073 Hamburg", "traeger": "Bezirksamt Harburg", "angebotstyp": "Haus der Jugend", "quelle_layer": "33505"}}, {"type": "Feature", "geometry": {"type": "Point", "coordinates": [575013.727, 5936961.567]}, "properties": {"einrichtung": "Haus der Jugend Jenfeld", "adresse": "Jenfelder Straße 252", "ort": "22045 Hamburg", "traeger": "Bezirksamt Hamburg-Wandsbek", "angebotstyp": "Haus der Jugend", "quelle_layer": "33505"}}, {"type": "Feature", "geometry": {"type": "Point", "coordinates": [568973.632, 5932484.84]}, "properties": {"einrichtung": "Haus der Jugend Rothenburgsort", "adresse": "Billhorner Kanalstraße 86", "ort": "20539 Hamburg", "traeger": "Jugend- und Kulturzentrum Neustadt Bücherhalle Kohlhöfen e.V.", "angebotstyp": "Haus der Jugend", "quelle_layer": "33505"}}, {"type": "Feature", "geometry": {"type": "Point", "coordinates": [569422.583, 5939253.828]}, "properties": {"einrichtung": "Haus der Jugend Barmbek", "adresse": "Wittenkamp 17", "ort": "22307 Hamburg", "traeger": "Bezirksamt Hamburg-Nord", "angebotstyp": "Haus der Jugend", "quelle_layer": "33505"}}, {"type": "Feature", "geometry": {"type": "Point", "coordinates": [566431.859, 5940204.74]}, "properties": {"einrichtung": "Kinder- und Jugendzentrum Alsterdorf", "adresse": "Bilser Straße 35a", "ort": "22297 Hamburg", "traeger": "Der Kinderschutzbund (DKSB)", "angebotstyp": "Haus der Jugend", "quelle_layer": "33505"}}, {"type": "Feature", "geometry": {"type": "Point", "coordinates": [567626.444, 5930660.37]}, "properties": {"einrichtung": "Haus der Jugend Veddel", "adresse": "Packersweide 7", "ort": "20539 Hamburg", "traeger": "Bezirksamt Hamburg-Mitte", "angebotstyp": "Haus der Jugend", "quelle_layer": "33505"}}, {"type": "Feature", "geometry": {"type": "Point", "coordinates": [565720.694, 5929600.586]}, "properties": {"einrichtung": "Haus der Jugend Wilhelmsburg", "adresse": "Rotenhäuser Damm 58", "ort": "21107 Hamburg", "traeger": "Bezirksamt Hamburg-Mitte", "angebotstyp": "Haus der Jugend", "quelle_layer": "33505"}}, {"type": "Feature", "geometry": {"type": "Point", "coordinates": [578697.121, 5927492.245]}, "properties": {"einrichtung": "Haus der Jugend Heckkaten", "adresse": "Oberer Landweg 2", "ort": "21033 Hamburg", "traeger": "Bezirksamt Hamburg-Bergedorf", "angebotstyp": "Haus der Jugend", "quelle_layer": "33505"}}, {"type": "Feature", "geometry": {"type": "Point", "coordinates": [569951.144, 5941128.675]}, "properties": {"einrichtung": "Haus der Jugend Steilshoop", "adresse": "Gropiusring 43a", "ort": "22309 Hamburg", "traeger": "Bezirksamt Hamburg-Wandsbek", "angebotstyp": "Haus der Jugend", "quelle_layer": "33505"}}, {"type": "Feature", "geometry": {"type": "Point", "coordinates": [572488.118, 5934602.021]}, "properties": {"einrichtung": "Haus der Jugend Manshardtstr.", "adresse": "Manshardtstraße 24", "ort": "22119 Hamburg", "traeger": "Jugendzentrum Horner Geest e.V.", "angebotstyp": "Haus der Jugend", "quelle_layer": "33505"}}, {"type": "Feature", "geometry": {"type": "Point", "coordinates": [571297.783, 5940814.885]}, "properties": {"einrichtung": "Haus der Jugend Bramfeld", "adresse": "Herthastraße 16", "ort": "22179 Hamburg", "traeger": "Bezirksamt Hamburg-Wandsbek", "angebotstyp": "Haus der Jugend", "quelle_layer": "33505"}}, {"type": "Feature", "geometry": {"type": "Point", "coordinates": [572816.85, 5933487.922]}, "properties": {"einrichtung": "Jugendzentrum Billstedt", "adresse": "Merkenstraße 24", "ort": "22117 Hamburg", "traeger": "Jugendarbeit Horn e.V.", "angebotstyp": "Haus der Jugend", "quelle_layer": "33505"}}, {"type": "Feature", "geometry": {"type": "Point", "coordinates": [580247.897, 5926934.515]}, "properties": {"einrichtung": "Jugendclub im Quartier", "adresse": "Am Hohen Stege 1", "ort": "21029 Hamburg", "traeger": "Bezirksamt Hamburg-Bergedorf", "angebotstyp": "Haus der Jugend", "quelle_layer": "33505"}}, {"type": "Feature", "geometry": {"type": "Point", "coordinates": [558137.159, 5931901.396]}, "properties": {"einrichtung": "Haus der Jugend Finkenwerder", "adresse": "Norderschulweg 7", "ort": "21129 Hamburg", "traeger": "Bezirksamt Hamburg-Mitte", "angebotstyp": "Haus der Jugend", "quelle_layer": "33505"}}, {"type": "Feature", "geometry": {"type": "Point", "coordinates": [559422.93, 5941100.176]}, "properties": {"einrichtung": "Haus der Jugend Eidelstedt", "adresse": "Baumacker 8a", "ort": "22523 Hamburg", "traeger": "Bezirksamt Hamburg-Eimsbüttel", "angebotstyp": "Haus der Jugend", "quelle_layer": "33505"}}, {"type": "Feature", "geometry": {"type": "Point", "coordinates": [557744.357, 5925953.675]}, "properties": {"einrichtung": "Haus der Jugend Neuwiedenthal", "adresse": "Quellmoor 24", "ort": "21147 Hamburg", "traeger": "Bezirksamt Harburg", "angebotstyp": "Haus der Jugend", "quelle_layer": "33505"}}, {"type": "Feature", "geometry": {"type": "Point", "coordinates": [556585.773, 5938334.542]}, "properties": {"einrichtung": "Haus der Jugend Osdorfer Born (Altona)", "adresse": "Glückstädter Weg 70A", "ort": "22549 Hamburg", "traeger": "Bezirksamt Hamburg-Altona", "angebotstyp": "Haus der Jugend", "quelle_layer": "33505"}}, {"type": "Feature", "geometry": {"type": "Point", "coordinates": [565763.123, 5946036.774]}, "properties": {"einrichtung": "Kinder- und Jugendclub Suckweg", "adresse": "Suckweg 48", "ort": "22419 Hamburg", "traeger": "Hamburger Kinder- und Jugendhilfe e.V.", "angebotstyp": "Haus der Jugend", "quelle_layer": "33505"}}, {"type": "Feature", "geometry": {"type": "Point", "coordinates": [567235.43, 5928104.317]}, "properties": {"einrichtung": "Haus der Jugend Kirchdorf", "adresse": "Krieterstraße 11", "ort": "21109 Hamburg", "traeger": "Bezirksamt Hamburg-Mitte", "angebotstyp": "Haus der Jugend", "quelle_layer": "33505"}}, {"type": "Feature", "geometry": {"type": "Point", "coordinates": [570217.338, 5934911.15]}, "properties": {"einrichtung": "Haus der Jugend Hammer Park", "adresse": "Caspar-Voght-Straße 35c", "ort": "20535 Hamburg", "traeger": "Bezirksamt Hamburg-Mitte", "angebotstyp": "Haus der Jugend", "quelle_layer": "33505"}}, {"type": "Feature", "geometry": {"type": "Point", "coordinates": [576086.365, 5931966.911]}, "properties": {"einrichtung": "Haus der Jugend Mümmelmannsberg", "adresse": "Kirchnerweg 8", "ort": "22115 Hamburg", "traeger": "Bezirksamt Hamburg-Mitte", "angebotstyp": "Haus der Jugend", "quelle_layer": "33505"}}, {"type": "Feature", "geometry": {"type": "Point", "coordinates": [567287.383, 5948171.619]}, "properties": {"einrichtung": "Haus der Jugend Kiwittsmoor", "adresse": "Tweeltenbek 27", "ort": "22417 Hamburg", "traeger": "Bezirksamt Hamburg-Nord", "angebotstyp": "Haus der Jugend", "quelle_layer": "33505"}}, {"type": "Feature", "geometry": {"type": "Point", "coordinates": [571044.522, 5934769.797]}, "properties": {"einrichtung": "Haus der Jugend Horn", "adresse": "Snitgerreihe 4", "ort": "22111 Hamburg", "traeger": "Bezirksamt Hamburg-Mitte", "angebotstyp": "Haus der Jugend", "quelle_layer": "33505"}}, {"type": "Feature", "geometry": {"type": "Point", "coordinates": [567750.132, 5926931.172]}, "properties": {"einrichtung": "Jugendzentrum Kirchdorf-Süd", "adresse": "Karl-Arnold-Ring 9", "ort": "21109 Hamburg", "traeger": "Jugendzentrum Kirchdorf-Süd e.V.", "angebotstyp": "Haus der Jugend", "quelle_layer": "33505"}}, {"type": "Feature", "geometry": {"type": "Point", "coordinates": [567652.979, 5940978.161]}, "properties": {"einrichtung": "Jugendhaus der AAW, Simon Schöffel Haus", "adresse": "Alsterdorfer Markt 13c", "ort": "22297 Hamburg", "traeger": "Evangelische Stiftung Alsterdorf", "angebotstyp": "Jugendklub", "quelle_layer": "33526"}}, {"type": "Feature", "geometry": {"type": "Point", "coordinates": [563358.445, 5933558.764]}, "properties": {"einrichtung": "Jugendhaus St. Pauli-Süd", "adresse": "Heidritterstraße 12", "ort": "20359 Hamburg", "traeger": "Ev.-Luth. Kirchengemeinde St. Pauli", "angebotstyp": "Jugendklub", "quelle_layer": "33526"}}, {"type": "Feature", "geometry": {"type": "Point", "coordinates": [567780.811, 5947835.536]}, "properties": {"einrichtung": "Jugendkeller Holitzberg", "adresse": "Holitzberg 288", "ort": "22417 Hamburg", "traeger": "Initiative Spielplätze und Freizeit Langenhorn-Heidberg e.V.", "angebotstyp": "Jugendklub", "quelle_layer": "33526"}}, {"type": "Feature", "geometry": {"type": "Point", "coordinates": [577501.642, 5930481.159]}, "properties": {"einrichtung": "Kinder- und Jugendhaus Boberg", "adresse": "Bockhorster Weg 1", "ort": "21031 Hamburg", "traeger": "IN VIA Hamburg e.V. Katholischer Verband für Mädchen- und\nFrauensozialarbeit", "angebotstyp": "Jugendklub", "quelle_layer": "33526"}}, {"type": "Feature", "geometry": {"type": "Point", "coordinates": [578193.867, 5939945.938]}, "properties": {"einrichtung": "\"T-KELLER \nKirchengemeinde Alt-Rahlstedt Großlohe\"", "adresse": "Großlohering 49", "ort": "22143 Hamburg", "traeger": "Ev.-Luth. Christophorus- Kirchengemeinde Großlohe", "angebotstyp": "Jugendklub", "quelle_layer": "33526"}}, {"type": "Feature", "geometry": {"type": "Point", "coordinates": [574919.378, 5939694.941]}, "properties": {"einrichtung": "Jugendclub YES !", "adresse": "Ahrenshooper Straße 5", "ort": "22147 Hamburg", "traeger": "Voll in Bewegung e.V.", "angebotstyp": "Jugendklub", "quelle_layer": "33526"}}, {"type": "Feature", "geometry": {"type": "Point", "coordinates": [576677.846, 5918637.526]}, "properties": {"einrichtung": "Jugendzentrum Vierlanden", "adresse": "Kirchwerder Elbdeich 276", "ort": "21037 Hamburg", "traeger": "Förderverein Jugendzentrum Vierlanden e.V.", "angebotstyp": "Jugendklub", "quelle_layer": "33526"}}, {"type": "Feature", "geometry": {"type": "Point", "coordinates": [573488.99, 5934914.295]}, "properties": {"einrichtung": "Jugendzentrum Horner Geest", "adresse": "Everlingweg 17", "ort": "22119 Hamburg", "traeger": "Jugendzentrum Horner Geest e.V.", "angebotstyp": "Jugendklub", "quelle_layer": "33526"}}, {"type": "Feature", "geometry": {"type": "Point", "coordinates": [560593.792, 5935467.504]}, "properties": {"einrichtung": "Jugend- und Freizeitzentrum Bahrenfeld", "adresse": "Bahrenfelder Chaussee 39", "ort": "22761 Hamburg", "traeger": "Arbeiter-Samariter-Bund, Landesverband Hamburg e.V.", "angebotstyp": "Jugendklub", "quelle_layer": "33526"}}, {"type": "Feature", "geometry": {"type": "Point", "coordinates": [577350.688, 5942895.127]}, "properties": {"einrichtung": "Jugendclub \"Mittendrin\" (Meiendorf)", "adresse": "Finnmarkring 12a", "ort": "22145 Hamburg", "traeger": "Ev.-Luth. Kirchengemeinde Meiendorf", "angebotstyp": "Jugendklub", "quelle_layer": "33526"}}, {"type": "Feature", "geometry": {"type": "Point", "coordinates": [562968.523, 5934399.511]}, "properties": {"einrichtung": "Jugendcafé Altona-Altstadt", "adresse": "Govertsweg 3", "ort": "22767 Hamburg", "traeger": "movego Jugendhilfe gemeinnützige GmbH", "angebotstyp": "Jugendklub", "quelle_layer": "33526"}}, {"type": "Feature", "geometry": {"type": "Point", "coordinates": [562593.43, 5935867.46]}, "properties": {"einrichtung": "Jugendcafe Altona-Nord", "adresse": "Kieler Straße 58", "ort": "22769 Hamburg", "traeger": "movego Jugendhilfe gemeinnützige GmbH", "angebotstyp": "Jugendklub", "quelle_layer": "33526"}}, {"type": "Feature", "geometry": {"type": "Point", "coordinates": [565603.045, 5947634.81]}, "properties": {"einrichtung": "Jugendclub Essener Str.", "adresse": "Essener Straße 83", "ort": "22081 Hamburg", "traeger": "Bezirksamt Hamburg-Nord", "angebotstyp": "Jugendklub", "quelle_layer": "33526"}}, {"type": "Feature", "geometry": {"type": "Point", "coordinates": [578114.223, 5926570.55]}, "properties": {"einrichtung": "Jugendclub Neualllermöhe - Steinjuz", "adresse": "Marta-Damkowski-Kehre 14", "ort": "21035 Hamburg", "traeger": "Frischluft Hamburg e.V.", "angebotstyp": "Jugendklub", "quelle_layer": "33526"}}, {"type": "Feature", "geometry": {"type": "Point", "coordinates": [578169.0, 5938762.0]}, "properties": {"einrichtung": "Jugendzentrum Startloch", "adresse": "Schimmelreiterweg 1", "ort": "22149 Hamburg", "traeger": "Verein zur Förderung der kulturellen und politischen Bildung der Jugendlichen in Rahlstedt e.V. (Startloch)", "angebotstyp": "Jugendklub", "quelle_layer": "33526"}}, {"type": "Feature", "geometry": {"type": "Point", "coordinates": [578315.263, 5939655.519]}, "properties": {"einrichtung": "Jugendzentrum Großlohe", "adresse": "Großlohering 68", "ort": "22143 Hamburg", "traeger": "Voll in Bewegung e.V.", "angebotstyp": "Jugendklub", "quelle_layer": "33526"}}, {"type": "Feature", "geometry": {"type": "Point", "coordinates": [574153.451, 5940523.186]}, "properties": {"einrichtung": "Jugendzentrum Farmsen", "adresse": "Berner Heerweg 187", "ort": "22159 Hamburg", "traeger": "Voll in Bewegung e.V.", "angebotstyp": "Jugendklub", "quelle_layer": "33526"}}, {"type": "Feature", "geometry": {"type": "Point", "coordinates": [563833.637, 5935559.255]}, "properties": {"einrichtung": "Cafe Eins", "adresse": "Altonaer Straße 63", "ort": "20357 Hamburg", "traeger": "Jugendsozialarbeit Schanzenviertel e.V.", "angebotstyp": "Jugendklub", "quelle_layer": "33526"}}, {"type": "Feature", "geometry": {"type": "Point", "coordinates": [574259.862, 5935423.596]}, "properties": {"einrichtung": "Jugendverein Dringsheide e.V.", "adresse": "Dringsheide 3", "ort": "22119 Hamburg", "traeger": "Jugendverein Dringsheide e.V.", "angebotstyp": "Jugendklub", "quelle_layer": "33526"}}, {"type": "Feature", "geometry": {"type": "Point", "coordinates": [575612.703, 5941522.484]}, "properties": {"einrichtung": "Jugendtreff Oldenfelde", "adresse": "Greifenberger Straße 71", "ort": "22147 Hamburg", "traeger": "Deutsches Rotes Kreuz, Landesverband Hamburg", "angebotstyp": "Jugendklub", "quelle_layer": "33526"}}, {"type": "Feature", "geometry": {"type": "Point", "coordinates": [559533.704, 5941548.021]}, "properties": {"einrichtung": "Jugendclub Hörgensweg", "adresse": "Hörgensweg 59a", "ort": "22523 Hamburg", "traeger": "Verband Kinder- und Jugendarbeit e.V.", "angebotstyp": "Jugendklub", "quelle_layer": "33526"}}, {"type": "Feature", "geometry": {"type": "Point", "coordinates": [562488.06, 5933422.659]}, "properties": {"einrichtung": "Jugendclub Königstraße", "adresse": "Palmaille 9", "ort": "22767 Hamburg", "traeger": "Bezirksamt Hamburg-Altona", "angebotstyp": "Jugendklub", "quelle_layer": "33526"}}, {"type": "Feature", "geometry": {"type": "Point", "coordinates": [574437.104, 5936355.98]}, "properties": {"einrichtung": "Jugendclub Jenfeld", "adresse": "Rodigallee 246", "ort": "22043 Hamburg", "traeger": "Diakoniewerk des Kirchenkreises Alt-Hamburg", "angebotstyp": "Jugendklub", "quelle_layer": "33526"}}, {"type": "Feature", "geometry": {"type": "Point", "coordinates": [560880.128, 5944439.115]}, "properties": {"einrichtung": "Jugendclub Lea Klygerman in Burgwedel", "adresse": "Königskinderweg 67", "ort": "22457 Hamburg", "traeger": "Verband Kinder- und Jugendarbeit e.V.", "angebotstyp": "Jugendklub", "quelle_layer": "33526"}}, {"type": "Feature", "geometry": {"type": "Point", "coordinates": [572250.358, 5949378.816]}, "properties": {"einrichtung": "CVJM-Jugendhaus Lemsahl JULE", "adresse": "Lemsahler Landstraße 213", "ort": "22397 Hamburg", "traeger": "CVJM christlicher verein junger menschen oberalster zu hamburg e.V.", "angebotstyp": "Jugendklub", "quelle_layer": "33526"}}, {"type": "Feature", "geometry": {"type": "Point", "coordinates": [570097.955, 5940670.761]}, "properties": {"einrichtung": "Jugendsozialarbeit (Ev. Gemeindezentrum Steilshoop) VfJ - Verein für Jugendpflege", "adresse": "Gründgensstraße 28", "ort": "22309 Hamburg", "traeger": "Verein für Jugendpflege Steilshoop e.V.", "angebotstyp": "Jugendklub", "quelle_layer": "33526"}}, {"type": "Feature", "geometry": {"type": "Point", "coordinates": [572754.811, 5938954.455]}, "properties": {"einrichtung": "Jugendclub Trabrennbahn", "adresse": "Johannes-Frömming-Straße 3", "ort": "22047 Hamburg", "traeger": "Voll in Bewegung e.V.", "angebotstyp": "Jugendklub", "quelle_layer": "33526"}}, {"type": "Feature", "geometry": {"type": "Point", "coordinates": [579256.046, 5929307.343]}, "properties": {"einrichtung": "Kinder- und Jugendtreff Clippo", "adresse": "Bornbrook 12", "ort": "21031 Hamburg", "traeger": "IN VIA Hamburg e.V. Katholischer Verband für Mädchen- und\nFrauensozialarbeit", "angebotstyp": "Jugendklub", "quelle_layer": "33526"}}, {"type": "Feature", "geometry": {"type": "Point", "coordinates": [558375.036, 5939502.743]}, "properties": {"einrichtung": "Werkstatt- und Freizeitreff Luur-up", "adresse": "Spreestraße 22", "ort": "22547 Hamburg", "traeger": "Luur-up e.V.", "angebotstyp": "Jugendklub", "quelle_layer": "33526"}}, {"type": "Feature", "geometry": {"type": "Point", "coordinates": [564660.56, 5940799.344]}, "properties": {"einrichtung": "Jugendclub Groß Borstel", "adresse": "Beerboomstücken 11m", "ort": "22453 Hamburg", "traeger": "Bezirksamt Hamburg-Nord", "angebotstyp": "Jugendklub", "quelle_layer": "33526"}}, {"type": "Feature", "geometry": {"type": "Point", "coordinates": [562620.561, 5934882.42]}, "properties": {"einrichtung": "Jugendtreff Altona Nord", "adresse": "Zeiseweg 17", "ort": "22769 Hamburg", "traeger": "Aktivspielplatz Altona-Nord e.V.", "angebotstyp": "Jugendklub", "quelle_layer": "33526"}}, {"type": "Feature", "geometry": {"type": "Point", "coordinates": [568824.603, 5935805.364]}, "properties": {"einrichtung": "Jugendclub Eilbek", "adresse": "Wandsbeker Chaussee 41", "ort": "22089 Hamburg", "traeger": "Voll in Bewegung e.V.", "angebotstyp": "Jugendklub", "quelle_layer": "33526"}}, {"type": "Feature", "geometry": {"type": "Point", "coordinates": [565829.75, 5922023.391]}, "properties": {"einrichtung": "JC Blechkiste", "adresse": "Rönneburger Straße 6", "ort": "21079 Hamburg", "traeger": "Treffpunkt der Jugend Harburg Süd e.V.", "angebotstyp": "Jugendklub", "quelle_layer": "33526"}}, {"type": "Feature", "geometry": {"type": "Point", "coordinates": [572594.825, 5942361.925]}, "properties": {"einrichtung": "HOT (Simeon Kirchengemeinde)", "adresse": "Am Stühm-Süd 85", "ort": "22175 Hamburg", "traeger": "Ev.-Luth. Simeon-Kirchengemeinde Bramfeld", "angebotstyp": "Jugendklub", "quelle_layer": "33526"}}, {"type": "Feature", "geometry": {"type": "Point", "coordinates": [577391.878, 5945557.729]}, "properties": {"einrichtung": "Jugendzentrum Manna Volksdorf", "adresse": "Ahrensburger Weg 14", "ort": "22359 Hamburg", "traeger": "Malteser Hilfsdienst e.V. -  (Bundesverband)", "angebotstyp": "Jugendklub", "quelle_layer": "33526"}}, {"type": "Feature", "geometry": {"type": "Point", "coordinates": [572003.717, 5938282.0]}, "properties": {"einrichtung": "JUST Stephanstraße", "adresse": "Stephanstraße 91e", "ort": "22047 Hamburg", "traeger": "Arbeiter-Samariter-Bund, Landesverband Hamburg e.V.", "angebotstyp": "Jugendklub", "quelle_layer": "33526"}}, {"type": "Feature", "geometry": {"type": "Point", "coordinates": [551795.0, 5930541.0]}, "properties": {"einrichtung": "Offene Jugendarbeit in Neuenfelde", "adresse": "Seehofring 89", "ort": "21129 Hamburg", "traeger": "Deutsches Rotes Kreuz Kreisverband Hamburg-Harburg e.V.", "angebotstyp": "Jugendklub", "quelle_layer": "33526"}}, {"type": "Feature", "geometry": {"type": "Point", "coordinates": [560198.336, 5934972.885]}, "properties": {"einrichtung": "Jugendcafe Bahrenfeld", "adresse": "Friedensallee 301", "ort": "22761 Hamburg", "traeger": "movego Jugendhilfe gemeinnützige GmbH", "angebotstyp": "Jugendklub", "quelle_layer": "33526"}}, {"type": "Feature", "geometry": {"type": "Point", "coordinates": [572315.505, 5933863.048]}, "properties": {"einrichtung": "Timo Jugendclub", "adresse": "Washingtonallee 65b", "ort": "22111 Hamburg", "traeger": "Ev.-Luth. Timotheusgemeinde zu Hamburg-Horn", "angebotstyp": "Jugendklub", "quelle_layer": "33526"}}, {"type": "Feature", "geometry": {"type": "Point", "coordinates": [563411.758, 5936277.713]}, "properties": {"einrichtung": "Jugendclub Eimsbüttel", "adresse": "Doormannsweg 13a", "ort": "20259 Hamburg", "traeger": "Bezirksamt Hamburg-Eimsbüttel", "angebotstyp": "Jugendklub", "quelle_layer": "33526"}}, {"type": "Feature", "geometry": {"type": "Point", "coordinates": [574469.955, 5940019.369]}, "properties": {"einrichtung": "Jugendclub Weissenhof (mit Aktivspielplatz)", "adresse": "Rahlstedter Weg 50", "ort": "22159 Hamburg", "traeger": "Aktivspielplatz Farmsen e.V.", "angebotstyp": "Jugendklub", "quelle_layer": "33526"}}, {"type": "Feature", "geometry": {"type": "Point", "coordinates": [556709.692, 5925444.754]}, "properties": {"einrichtung": "Jugendfreizeitlounge Neugraben", "adresse": "Am Johannisland 2", "ort": "21147 Hamburg", "traeger": "Pestalozzi-Stiftung", "angebotstyp": "Jugendklub", "quelle_layer": "33526"}}, {"type": "Feature", "geometry": {"type": "Point", "coordinates": [560579.484, 5942034.512]}, "properties": {"einrichtung": "Jugendclub Schnelsen", "adresse": "Graf-Johann-Weg 81", "ort": "22459 Hamburg", "traeger": "Hamburger Kinder- und Jugendhilfe e.V.", "angebotstyp": "Jugendklub", "quelle_layer": "33526"}}, {"type": "Feature", "geometry": {"type": "Point", "coordinates": [558938.32, 5938867.102]}, "properties": {"einrichtung": "Jugendcafe Lurup", "adresse": "Langbargheide 22", "ort": "22547 Hamburg", "traeger": "movego Jugendhilfe gemeinnützige GmbH", "angebotstyp": "Jugendklub", "quelle_layer": "33526"}}, {"type": "Feature", "geometry": {"type": "Point", "coordinates": [576001.486, 5937836.314]}, "properties": {"einrichtung": "Jugendtreff Triangel", "adresse": "Schöneberger Straße 52", "ort": "22149 Hamburg", "traeger": "Mehr Platz für Kinder in Rahlstedt-Ost e.V. Elterninitiative von 1972", "angebotstyp": "Jugendklub", "quelle_layer": "33526"}}, {"type": "Feature", "geometry": {"type": "Point", "coordinates": [575979.897, 5938235.352]}, "properties": {"einrichtung": "Jugendoase - Markus-Kirchengemeinde Hohenhorst", "adresse": "Halenseering 6", "ort": "22149 Hamburg", "traeger": "Ev.-Luth. Trinitatis-Kirchengemeinde Hohenhorst", "angebotstyp": "Jugendklub", "quelle_layer": "33526"}}, {"type": "Feature", "geometry": {"type": "Point", "coordinates": [554589.57, 5936745.28]}, "properties": {"einrichtung": "Jugendzentrum Kiebitz", "adresse": "Osdorfer Landstraße 400", "ort": "22589 Hamburg", "traeger": "movego Jugendhilfe gemeinnützige GmbH", "angebotstyp": "Jugendklub", "quelle_layer": "33526"}}, {"type": "Feature", "geometry": {"type": "Point", "coordinates": [575013.727, 5936961.567]}, "properties": {"einrichtung": "Jugendbüro und Kirchenkeller (Offene Jugendarbeit / Mädchenarbeit)", "adresse": "Jenfelder Straße 252", "ort": "22045 Hamburg", "traeger": "Evangelisch-Lutherischer Kirchenkreis Hamburg-Ost", "angebotstyp": "Jugendklub", "quelle_layer": "33526"}}, {"type": "Feature", "geometry": {"type": "Point", "coordinates": [574922.81, 5942031.845]}, "properties": {"einrichtung": "Jugendclub Berner Au", "adresse": "Zamenhofweg 20", "ort": "22159 Hamburg", "traeger": "Jugendclub Berner Au e.V.", "angebotstyp": "Jugendklub", "quelle_layer": "33526"}}, {"type": "Feature", "geometry": {"type": "Point", "coordinates": [576153.145, 5931516.353]}, "properties": {"einrichtung": "Jugendetage Mümmelmannsberg", "adresse": "Havighorster Redder 50", "ort": "22115 Hamburg", "traeger": "Ev.-Luth. Kirchengemeinde in Steinbek", "angebotstyp": "Jugendklub", "quelle_layer": "33526"}}, {"type": "Feature", "geometry": {"type": "Point", "coordinates": [557404.538, 5939825.881]}, "properties": {"einrichtung": "Jugendtreff Netzestraße", "adresse": "Netzestraße 33", "ort": "22547 Hamburg", "traeger": "Vereinigung Pestalozzi gGmbH", "angebotstyp": "Jugendklub", "quelle_layer": "33526"}}, {"type": "Feature", "geometry": {"type": "Point", "coordinates": [577939.456, 5940809.784]}, "properties": {"einrichtung": "Jugendclub Boltwiesen", "adresse": "Bei den Boltwiesen 60", "ort": "22143 Hamburg", "traeger": "Deutsches Rotes Kreuz, Landesverband Hamburg", "angebotstyp": "Jugendklub", "quelle_layer": "33526"}}, {"type": "Feature", "geometry": {"type": "Point", "coordinates": [568102.129, 5937818.07]}, "properties": {"einrichtung": "Jugendtreff Jarrestadt", "adresse": "Kaemmererufer 23", "ort": "22301 Hamburg", "traeger": "Jarrestadt-Leben e.V.", "angebotstyp": "Jugendklub", "quelle_layer": "33526"}}, {"type": "Feature", "geometry": {"type": "Point", "coordinates": [562921.252, 5937728.111]}, "properties": {"einrichtung": "Lenzsiedlung e.V. Verein für Kinder, Jugend und Gemeinwesen", "adresse": "Julius-Vosseler-Straße 193", "ort": "22527 Hamburg", "traeger": "Lenzsiedlung e.V. Verein für Kinder, Jugend und Gemeinwesen", "angebotstyp": "Jugendklub", "quelle_layer": "33526"}}, {"type": "Feature", "geometry": {"type": "Point", "coordinates": [556154.266, 5938066.891]}, "properties": {"einrichtung": "Jugendcafe Osdorf", "adresse": "Kroonhorst 17", "ort": "22549 Hamburg", "traeger": "movego Jugendhilfe gemeinnützige GmbH", "angebotstyp": "Jugendklub", "quelle_layer": "33526"}}, {"type": "Feature", "geometry": {"type": "Point", "coordinates": [574482.162, 5937170.918]}, "properties": {"einrichtung": "Jugendzentrum Jenfeld", "adresse": "Jenfelder Tannenweg 10", "ort": "22045 Hamburg", "traeger": "Quadriga gemeinnützige Gesellschaft für Beratung, Jugend, Kultur und Arbeit mbH", "angebotstyp": "Jugendklub", "quelle_layer": "33526"}}, {"type": "Feature", "geometry": {"type": "Point", "coordinates": [562728.945, 5924030.997]}, "properties": {"einrichtung": "Jugendtreff Hans-Dewitz-Ring", "adresse": "Hans-Dewitz-Ring 2c", "ort": "21075 Hamburg", "traeger": "DRK-Landesverband Hamburg e.V.", "angebotstyp": "Jugendklub", "quelle_layer": "33526"}}, {"type": "Feature", "geometry": {"type": "Point", "coordinates": [579654.991, 5928468.531]}, "properties": {"einrichtung": "Jugendbude Lohbrügge", "adresse": "Lohbrügger Landstraße 55", "ort": "21031 Hamburg", "traeger": "Bezirksamt Hamburg-Bergedorf", "angebotstyp": "Jugendklub", "quelle_layer": "33526"}}, {"type": "Feature", "geometry": {"type": "Point", "coordinates": [580891.893, 5927162.46]}, "properties": {"einrichtung": "Jugendzentrum Unser Haus", "adresse": "Wentorfer Straße 26", "ort": "21029 Hamburg", "traeger": "Unser Haus, Verein für selbstverwaltete Jugend-Freizeit- und Kulturarbeit in Bergedorf e.V.", "angebotstyp": "Jugendklub", "quelle_layer": "33526"}}, {"type": "Feature", "geometry": {"type": "Point", "coordinates": [554157.625, 5925018.866]}, "properties": {"einrichtung": "Freizeitzentrum Sandbek", "adresse": "Ohrnsweg 50b", "ort": "21149 Hamburg", "traeger": "Margaretenhort Kinder- und Jugendhilfe gGmbH", "angebotstyp": "Jugendklub", "quelle_layer": "33526"}}, {"type": "Feature", "geometry": {"type": "Point", "coordinates": [552828.485, 5936970.179]}, "properties": {"einrichtung": "Jugendcafé Basement", "adresse": "Sülldorfer Kirchenweg 187", "ort": "22589 Hamburg", "traeger": "Ev.-Luth. Kirchengemeinde Sülldorf", "angebotstyp": "Jugendklub", "quelle_layer": "33526"}}, {"type": "Feature", "geometry": {"type": "Point", "coordinates": [577481.159, 5927232.392]}, "properties": {"einrichtung": "JUZENA - Neuallermöhe", "adresse": "Sophie-Schoop-Weg 84", "ort": "21035 Hamburg", "traeger": "Turn- und Sportgemeinschaft Bergedorf von 1860 e.V.", "angebotstyp": "Jugendklub", "quelle_layer": "33526"}}, {"type": "Feature", "geometry": {"type": "Point", "coordinates": [558663.975, 5936355.526]}, "properties": {"einrichtung": "Jugendzentrum \"Juno 23\"", "adresse": "Notkestraße 23", "ort": "22607 Hamburg", "traeger": "Arbeiter-Samariter-Bund, Landesverband Hamburg e.V.", "angebotstyp": "Jugendklub", "quelle_layer": "33526"}}, {"type": "Feature", "geometry": {"type": "Point", "coordinates": [563495.606, 5924820.796]}, "properties": {"einrichtung": "Jugendclub Heimfeld", "adresse": "Grumbrechtstraße 65", "ort": "21075 Hamburg", "traeger": "Arbeiterwohlfahrt Landesverband Hamburg e.V.", "angebotstyp": "Jugendklub", "quelle_layer": "33526"}}, {"type": "Feature", "geometry": {"type": "Point", "coordinates": [574918.075, 5927960.202]}, "properties": {"einrichtung": "Jugendclub Gleis 1", "adresse": "Am Gleisdreieck 1", "ort": "21033 Hamburg", "traeger": "Turn- und Sportgemeinschaft Bergedorf von 1860 e.V.", "angebotstyp": "Jugendklub", "quelle_layer": "33526"}}, {"type": "Feature", "geometry": {"type": "Point", "coordinates": [569468.219, 5941224.624]}, "properties": {"einrichtung": "1. FC Hellbrook (\"MOKIP\" Mobiles Kinderprojekt)", "adresse": "Edwin-Scharff-Ring 57", "ort": "22309 Hamburg", "traeger": "1. FC. Hellbrook e.V.", "angebotstyp": "Jugendklub", "quelle_layer": "33526"}}, {"type": "Feature", "geometry": {"type": "Point", "coordinates": [573063.585, 5951160.639]}, "properties": {"einrichtung": "Jugendtreff Duvenstedt", "adresse": "Duvenstedter Markt 8", "ort": "22397 Hamburg", "traeger": "Vereinigung Pestalozzi gGmbH", "angebotstyp": "Jugendklub", "quelle_layer": "33526"}}, {"type": "Feature", "geometry": {"type": "Point", "coordinates": [580261.327, 5928008.853]}, "properties": {"einrichtung": "Jungentreff Billebogen", "adresse": "Walter-Freitag-Straße 8", "ort": "21031 Hamburg", "traeger": "Arbeiterwohlfahrt Landesverband Hamburg e.V.", "angebotstyp": "Jugendklub", "quelle_layer": "33526"}}, {"type": "Feature", "geometry": {"type": "Point", "coordinates": [580192.571, 5929491.504]}, "properties": {"einrichtung": "Jugendfreizeit- und Beratungszentrum KAP", "adresse": "Kurt-Adams-Platz 9", "ort": "21031 Hamburg", "traeger": "Ev.-luth. Auferstehungsgemeinde Lohbrügge", "angebotstyp": "Jugendklub", "quelle_layer": "33526"}}, {"type": "Feature", "geometry": {"type": "Point", "coordinates": [551436.579, 5937097.988]}, "properties": {"einrichtung": "Jugendzentrum Rissen", "adresse": "Sülldorfer Landstraße 333", "ort": "22559 Hamburg", "traeger": "Vereinigung Pestalozzi gGmbH", "angebotstyp": "Jugendcafé", "quelle_layer": "33561"}}, {"type": "Feature", "geometry": {"type": "Point", "coordinates": [557874.321, 5925318.537]}, "properties": {"einrichtung": "Jugendcafé Neuwiedenthal", "adresse": "Rehrstieg 15", "ort": "21147 Hamburg", "traeger": "Förderverein Neuwiedenthal e.V.", "angebotstyp": "Jugendcafé", "quelle_layer": "33561"}}, {"type": "Feature", "geometry": {"type": "Point", "coordinates": [563402.783, 5923377.817]}, "properties": {"einrichtung": "Jugendcafé Eißendorf", "adresse": "Eißendorfer Straße 195", "ort": "21073 Hamburg", "traeger": "Harburger Turnerbund von 1865 e.V.", "angebotstyp": "Jugendcafé", "quelle_layer": "33561"}}, {"type": "Feature", "geometry": {"type": "Point", "coordinates": [576131.771, 5937912.579]}, "properties": {"einrichtung": "Streetlife e.V. - Projekt Jungs-Café", "adresse": "Potsdamer Straße 4a", "ort": "22149 Hamburg", "traeger": "Streetlife - Verein für Straßensozialarbeit in Hamburg e.V.", "angebotstyp": "Jugendcafé", "quelle_layer": "33561"}}, {"type": "Feature", "geometry": {"type": "Point", "coordinates": [580208.084, 5928142.596]}, "properties": {"einrichtung": "Mädchentreff Lohbrügge", "adresse": "Jakob-Kaiser-Straße 2", "ort": "21031 Hamburg", "traeger": "Dolle Deerns e.V. Verein zur Förderung feministischer Mädchenarbeit", "angebotstyp": "Mädchentreff", "quelle_layer": "33545"}}, {"type": "Feature", "geometry": {"type": "Point", "coordinates": [563890.838, 5935211.59]}, "properties": {"einrichtung": "Mädchentreff Schanzenviertel e.V.", "adresse": "Bartelsstraße 29", "ort": "20357 Hamburg", "traeger": "Mädchentreff, Verein zur Förderung feministischer stadtteilbezogener \nMädchenarbeit e.V.", "angebotstyp": "Mädchentreff", "quelle_layer": "33545"}}, {"type": "Feature", "geometry": {"type": "Point", "coordinates": [573382.002, 5932887.673]}, "properties": {"einrichtung": "IN VIA Hamburg e.V. / Mädchentreff", "adresse": "Öjendorfer Weg 10a", "ort": "22111 Hamburg", "traeger": "IN VIA Hamburg e.V. Katholischer Verband für Mädchen- und\nFrauensozialarbeit", "angebotstyp": "Mädchentreff", "quelle_layer": "33545"}}, {"type": "Feature", "geometry": {"type": "Point", "coordinates": [563668.219, 5937945.407]}, "properties": {"einrichtung": "Plakatwerkstatt", "adresse": "Veilchenstieg 29", "ort": "22529 Hamburg", "traeger": "Jugendsozialarbeit der Apostelkirche e.V.", "angebotstyp": "Mädchentreff", "quelle_layer": "33545"}}, {"type": "Feature", "geometry": {"type": "Point", "coordinates": [576392.44, 5926586.069]}, "properties": {"einrichtung": "Mädchentreff Neuallermöhe", "adresse": "Herbert-Pardo-Weg 122", "ort": "21035 Hamburg", "traeger": "Dolle Deerns e.V. Verein zur Förderung feministischer Mädchenarbeit", "angebotstyp": "Mädchentreff", "quelle_layer": "33545"}}, {"type": "Feature", "geometry": {"type": "Point", "coordinates": [565077.269, 5924301.149]}, "properties": {"einrichtung": "Mädchentreff Harburg", "adresse": "Neue Straße 59", "ort": "21073 Hamburg", "traeger": "Dolle Deerns e.V. Verein zur Förderung feministischer Mädchenarbeit", "angebotstyp": "Mädchentreff", "quelle_layer": "33545"}}, {"type": "Feature", "geometry": {"type": "Point", "coordinates": [563378.978, 5935139.447]}, "properties": {"einrichtung": "Mädchen Oase", "adresse": "Eifflerstraße 5", "ort": "22769 Hamburg", "traeger": "Dolle Deerns e.V. Verein zur Förderung feministischer Mädchenarbeit", "angebotstyp": "Mädchentreff", "quelle_layer": "33545"}}, {"type": "Feature", "geometry": {"type": "Point", "coordinates": [556509.592, 5938159.109]}, "properties": {"einrichtung": "Mädchentreff Osdorf", "adresse": "Bornheide 76", "ort": "22549 Hamburg", "traeger": "Arbeiter-Samariter-Bund, Landesverband Hamburg e.V.", "angebotstyp": "Mädchentreff", "quelle_layer": "33545"}}, {"type": "Feature", "geometry": {"type": "Point", "coordinates": [576131.771, 5937912.579]}, "properties": {"einrichtung": "Streetlife e.V. - Projekt Mädchencafé", "adresse": "Potsdamer Straße 4a", "ort": "22149 Hamburg", "traeger": "Streetlife - Verein für Straßensozialarbeit in Hamburg e.V.", "angebotstyp": "Mädchentreff", "quelle_layer": "33545"}}, {"type": "Feature", "geometry": {"type": "Point", "coordinates": [558836.784, 5925523.862]}, "properties": {"einrichtung": "Mädchenclub Neuwiedenthal", "adresse": "Lange Striepen 7", "ort": "21147 Hamburg", "traeger": "Bezirksamt Harburg", "angebotstyp": "Mädchentreff", "quelle_layer": "33545"}}, {"type": "Feature", "geometry": {"type": "Point", "coordinates": [567651.878, 5937267.452]}, "properties": {"einrichtung": "Mädchentreff Barmbek-Süd", "adresse": "Bachstraße 98", "ort": "22083 Hamburg", "traeger": "Jarrestadt-Leben e.V.", "angebotstyp": "Mädchentreff", "quelle_layer": "33545"}}, {"type": "Feature", "geometry": {"type": "Point", "coordinates": [557359.512, 5939950.849]}, "properties": {"einrichtung": "Mädchentreff Lurup", "adresse": "Netzestraße 24", "ort": "22547 Hamburg", "traeger": "Der Kinderschutzbund (DKSB)", "angebotstyp": "Mädchentreff", "quelle_layer": "33545"}}, {"type": "Feature", "geometry": {"type": "Point", "coordinates": [561107.761, 5934196.537]}, "properties": {"einrichtung": "Mädchentreff Ottensen", "adresse": "Fischers Allee 95", "ort": "22763 Hamburg", "traeger": "Der Kinderschutzbund Landesverband Hamburg e.V.", "angebotstyp": "Mädchentreff", "quelle_layer": "33545"}}, {"type": "Feature", "geometry": {"type": "Point", "coordinates": [563375.559, 5936312.499]}, "properties": {"einrichtung": "Mädchenzentrum Eimsbüttel", "adresse": "Doormannsweg 12", "ort": "20259 Hamburg", "traeger": "Bezirksamt Hamburg-Eimsbüttel", "angebotstyp": "Mädchentreff", "quelle_layer": "33545"}}, {"type": "Feature", "geometry": {"type": "Point", "coordinates": [567666.811, 5926844.852]}, "properties": {"einrichtung": "Mädchentreff Kirchdorf-Süd", "adresse": "Erlerring 9", "ort": "21109 Hamburg", "traeger": "Dolle Deerns e.V. Verein zur Förderung feministischer Mädchenarbeit", "angebotstyp": "Mädchentreff", "quelle_layer": "33545"}}, {"type": "Feature", "geometry": {"type": "Point", "coordinates": [574893.712, 5937154.951]}, "properties": {"einrichtung": "Freie Kulturinitiative Jenfeld", "adresse": "Kelloggstraße 38", "ort": "22045 Hamburg", "traeger": "Quadriga gemeinnützige Gesellschaft für Beratung, Jugend, Kultur und Arbeit mbH", "angebotstyp": "Jugendangebot im Stadtteil-/Kulturzentrum", "quelle_layer": "33507"}}, {"type": "Feature", "geometry": {"type": "Point", "coordinates": [575491.065, 5936676.87]}, "properties": {"einrichtung": "Jenfelder Kaffeekanne", "adresse": "Oppelner Straße 5", "ort": "22045 Hamburg", "traeger": "Aktive Nachbarschaft Jenfeld e.V.", "angebotstyp": "Jugendangebot im Stadtteil-/Kulturzentrum", "quelle_layer": "33507"}}, {"type": "Feature", "geometry": {"type": "Point", "coordinates": [565133.491, 5923178.806]}, "properties": {"einrichtung": "Freizeitzentrum Feuervogel", "adresse": "Baererstraße 36", "ort": "21073 Hamburg", "traeger": "IN VIA Hamburg e.V. Katholischer Verband für Mädchen- und\nFrauensozialarbeit", "angebotstyp": "Jugendangebot im Stadtteil-/Kulturzentrum", "quelle_layer": "33507"}}, {"type": "Feature", "geometry": {"type": "Point", "coordinates": [570100.581, 5933893.163]}, "properties": {"einrichtung": "Jugendtreff Hamm e.V.", "adresse": "Wendenstraße 478b", "ort": "20537 Hamburg", "traeger": "Kanalhaus Hamm-Süd e.V.", "angebotstyp": "Jugendangebot im Stadtteil-/Kulturzentrum", "quelle_layer": "33507"}}, {"type": "Feature", "geometry": {"type": "Point", "coordinates": [564419.052, 5933553.893]}, "properties": {"einrichtung": "JUKZ am Stintfang (ehem. Haus der Jugend)", "adresse": "Alfred-Wegener-Weg 3", "ort": "20459 Hamburg", "traeger": "Jugend- und Kulturzentrum Neustadt Bücherhalle Kohlhöfen e.V.", "angebotstyp": "Jugendangebot im Stadtteil-/Kulturzentrum", "quelle_layer": "33507"}}, {"type": "Feature", "geometry": {"type": "Point", "coordinates": [574973.181, 5947951.629]}, "properties": {"einrichtung": "Begegnungsstätte Bergstedt", "adresse": "Bergstedter Chaussee 203", "ort": "22395 Hamburg", "traeger": "Begegnungsstätte Bergstedt e.V.", "angebotstyp": "Jugendangebot im Stadtteil-/Kulturzentrum", "quelle_layer": "33507"}}, {"type": "Feature", "geometry": {"type": "Point", "coordinates": [563573.434, 5933747.603]}, "properties": {"einrichtung": "Kinder- und Jugendtagesstätte Silbersack", "adresse": "Silbersackstraße 14", "ort": "20359 Hamburg", "traeger": "Nachbarschaftsheim St. Pauli e.V.", "angebotstyp": "Jugendangebot im Stadtteil-/Kulturzentrum", "quelle_layer": "33507"}}, {"type": "Feature", "geometry": {"type": "Point", "coordinates": [575000.053, 5932217.162]}, "properties": {"einrichtung": "Stadtteilprojekt Sonnenland, Neue Kate Sonnenland", "adresse": "Sonnenland 13", "ort": "22115 Hamburg", "traeger": "Stadtteilprojekt Sonnenland e.V.", "angebotstyp": "Jugendangebot im Stadtteil-/Kulturzentrum", "quelle_layer": "33507"}}, {"type": "Feature", "geometry": {"type": "Point", "coordinates": [567693.275, 5944014.245]}, "properties": {"einrichtung": "Interessengemeinschaft um den Lentersweg", "adresse": "Flughafenstraße 91", "ort": "22415 Hamburg", "traeger": "IGL-Interessengemeinschaft um den Lentersweg e.V.", "angebotstyp": "Jugendangebot im Stadtteil-/Kulturzentrum", "quelle_layer": "33507"}}, {"type": "Feature", "geometry": {"type": "Point", "coordinates": [569249.073, 5937653.06]}, "properties": {"einrichtung": "Puppenbauworkshops,Puppentheater", "adresse": "Bramfelderstraße 9", "ort": "22305 Hamburg", "traeger": "Arbeitsgemeinschaft für das Puppenspiel e.V.", "angebotstyp": "Sonstiges Kulturangebot (OKJA)", "quelle_layer": "33550"}}, {"type": "Feature", "geometry": {"type": "Point", "coordinates": [568524.935, 5937889.889]}, "properties": {"einrichtung": "Arbeitskreis Musik in der Jugend LV Hamburg", "adresse": "Saarlandstraße 4", "ort": "22303 Hamburg", "traeger": "Arbeitskreis Musik in der Jugend LV Hamburg", "angebotstyp": "Sonstiges Kulturangebot (OKJA)", "quelle_layer": "33550"}}, {"type": "Feature", "geometry": {"type": "Point", "coordinates": [568497.845, 5937053.401]}, "properties": {"einrichtung": "\"1000 Steine\" - Trockendock e. V.", "adresse": "Elsastraße 41", "ort": "22083 Hamburg", "traeger": "Trockendock e. V.", "angebotstyp": "Sonstiges Kulturangebot (OKJA)", "quelle_layer": "33550"}}, {"type": "Feature", "geometry": {"type": "Point", "coordinates": [569237.528, 5937930.828]}, "properties": {"einrichtung": "Theaterjugend Hamburg, Projekte, Kurse", "adresse": "Maurienstraße 19", "ort": "22305 Hamburg", "traeger": "Theaterjugend Hamburg e.V.", "angebotstyp": "Sonstiges Kulturangebot (OKJA)", "quelle_layer": "33550"}}, {"type": "Feature", "geometry": {"type": "Point", "coordinates": [565745.187, 5933844.405]}, "properties": {"einrichtung": "Liberale jüdische Gemeinde Hamburg e.V.", "adresse": "Große Johannisstraße 13", "ort": "20457 Hamburg", "traeger": "Liberale jüdische Gemeinde Hamburg e.V.", "angebotstyp": "Sonstiges Kulturangebot (OKJA)", "quelle_layer": "33550"}}, {"type": "Feature", "geometry": {"type": "Point", "coordinates": [568462.681, 5938132.234]}, "properties": {"einrichtung": "FILM DIR EINEN – Medienprojekte mit Kindern und Jugendlichen", "adresse": "Wiesendamm 59", "ort": "22305 Hamburg", "angebotstyp": "Sonstiges Kulturangebot (OKJA)", "quelle_layer": "33550"}}, {"type": "Feature", "geometry": {"type": "Point", "coordinates": [578141.61, 5917540.598]}, "properties": {"einrichtung": "Deichprogramm 21037", "adresse": "Auf dem Sülzbrack 2", "ort": "21037 Hamburg", "traeger": "Sport-Club Vier- und Marschlande von 1899 1899 e.V.", "angebotstyp": "Freizeitprogramm für junge Menschen", "quelle_layer": "33539"}}, {"type": "Feature", "geometry": {"type": "Point", "coordinates": [565281.078, 5923385.735]}, "properties": {"einrichtung": "Leben mit Behinderung - Angebot Harburg c/o KIZ Kennedyhaus", "adresse": "Kalischerstraße 18", "ort": "21073 Hamburg", "traeger": "Leben mit Behinderung Hamburg Elternverein e.V.", "angebotstyp": "Freizeitprogramm für junge Menschen", "quelle_layer": "33539"}}, {"type": "Feature", "geometry": {"type": "Point", "coordinates": [577493.656, 5938230.877]}, "properties": {"einrichtung": "Streetlife e.V. - Projekt  Midnight_Basketball / Fußball", "adresse": "Kielkoppelstraße 16d", "ort": "22149 Hamburg", "traeger": "Streetlife - Verein für Straßensozialarbeit in Hamburg e.V.", "angebotstyp": "Freizeitprogramm für junge Menschen", "quelle_layer": "33539"}}, {"type": "Feature", "geometry": {"type": "Point", "coordinates": [578697.121, 5927492.245]}, "properties": {"einrichtung": "Laß´ 1000 Steine rollen (Projekt im HdJ Heckkaten)", "adresse": "Oberer Landweg 2", "ort": "21033 Hamburg", "traeger": "Trockendock e.V.", "angebotstyp": "Freizeitprogramm für junge Menschen", "quelle_layer": "33539"}}, {"type": "Feature", "geometry": {"type": "Point", "coordinates": [564691.228, 5923360.698]}, "properties": {"einrichtung": "Aufsuchende Jugendarbeit in Harburg-Kern", "adresse": "Steinikestraße 20", "ort": "21073 Hamburg", "traeger": "IN VIA Hamburg e.V. Katholischer Verband für Mädchen- und\nFrauensozialarbeit", "angebotstyp": "Freizeitprogramm für junge Menschen", "quelle_layer": "33539"}}, {"type": "Feature", "geometry": {"type": "Point", "coordinates": [566851.562, 5933894.162]}, "properties": {"bezeichnung": "Zentralbibliothek", "adresse": "Hühnerposten 1", "ort": "20097 Hamburg", "telefon": "+49 (40) 42 606-0", "link": "https://www.buecherhallen.de/zentralbibliothek.html", "angebotstyp": "Öffentliche Bücherhalle", "quelle_layer": "19574"}}, {"type": "Feature", "geometry": {"type": "Point", "coordinates": [572214.377, 5945615.189]}, "properties": {"bezeichnung": "Bücherhalle Alstertal", "adresse": "Heegbarg 22", "ort": "22391 Hamburg", "telefon": "+49 40 42606 2610", "link": "https://www.buecherhallen.de/alstertal.html", "angebotstyp": "Öffentliche Bücherhalle", "quelle_layer": "19574"}}, {"type": "Feature", "geometry": {"type": "Point", "coordinates": [561774.413, 5934117.79]}, "properties": {"bezeichnung": "Bücherhalle Altona", "adresse": "Ottenser Haupstrasse 10 (Mercado)", "ort": "22765 Hamburg", "telefon": "+49 40 42606 2620", "link": "https://www.buecherhallen.de/altona.html", "angebotstyp": "Öffentliche Bücherhalle", "quelle_layer": "19574"}}, {"type": "Feature", "geometry": {"type": "Point", "coordinates": [569135.925, 5937984.32]}, "properties": {"bezeichnung": "Bücherhalle Barmbek", "adresse": "Poppenhusenstr. 12", "ort": "22305 Hamburg", "telefon": "+49 40 42606 2630", "link": "https://www.buecherhallen.de/barmbek.html", "angebotstyp": "Öffentliche Bücherhalle", "quelle_layer": "19574"}}, {"type": "Feature", "geometry": {"type": "Point", "coordinates": [580220.07, 5927125.715]}, "properties": {"bezeichnung": "Bücherhalle Bergedorf", "adresse": "Holzhude 1 (im KörberHaus)", "ort": "21029 Hamburg", "telefon": "+49 40 42606 2640", "link": "https://www.buecherhallen.de/bergedorf.html", "angebotstyp": "Öffentliche Bücherhalle", "quelle_layer": "19574"}}, {"type": "Feature", "geometry": {"type": "Point", "coordinates": [573382.404, 5932829.053]}, "properties": {"bezeichnung": "Bücherhalle Billstedt", "adresse": "Möllner Landstrasse 31", "ort": "22111 Hamburg", "telefon": "+49 40 42606 2650", "link": "https://www.buecherhallen.de/billstedt.html", "angebotstyp": "Öffentliche Bücherhalle", "quelle_layer": "19574"}}, {"type": "Feature", "geometry": {"type": "Point", "coordinates": [571364.041, 5940805.339]}, "properties": {"bezeichnung": "Bücherhalle Bramfeld", "adresse": "Herthastraße 18", "ort": "22179 Hamburg", "telefon": "+49 40 42606 2660", "link": "https://www.buecherhallen.de/bramfeld.html", "angebotstyp": "Öffentliche Bücherhalle", "quelle_layer": "19574"}}, {"type": "Feature", "geometry": {"type": "Point", "coordinates": [569049.021, 5936960.341]}, "properties": {"bezeichnung": "Bücherhalle Dehnhaide", "adresse": "Wohldorfer Straße 30 (im Barmbek°Basch)", "ort": "22081 Hamburg", "telefon": "+49 40 42606 2670", "link": "https://www.buecherhallen.de/dehnhaide.html", "angebotstyp": "Öffentliche Bücherhalle", "quelle_layer": "19574"}}, {"type": "Feature", "geometry": {"type": "Point", "coordinates": [559760.805, 5940209.87]}, "properties": {"bezeichnung": "Bücherhalle Eidelstedt", "adresse": "Alte Elbgaustraße 12 (im steeedt)", "ort": "22523 Hamburg", "telefon": "+49 40 42606 2680", "link": "https://www.buecherhallen.de/eidelstedt.html", "angebotstyp": "Öffentliche Bücherhalle", "quelle_layer": "19574"}}, {"type": "Feature", "geometry": {"type": "Point", "coordinates": [563375.559, 5936312.499]}, "properties": {"bezeichnung": "Bücherhalle Eimsbüttel", "adresse": "Doormansweg 12 (im Hamburg-Haus)", "ort": "20259 Hamburg", "telefon": "+49 40 42606 2690", "link": "https://www.buecherhallen.de/eimsbuettel.html", "angebotstyp": "Öffentliche Bücherhalle", "quelle_layer": "19574"}}, {"type": "Feature", "geometry": {"type": "Point", "coordinates": [553770.811, 5935276.727]}, "properties": {"bezeichnung": "Bücherhalle Elbvororte", "adresse": "Sülldorfer Kirchenweg 1b", "ort": "22587 Hamburg", "telefon": "+49 40 42606 2700", "link": "https://www.buecherhallen.de/elbvororte.html", "angebotstyp": "Öffentliche Bücherhalle", "quelle_layer": "19574"}}, {"type": "Feature", "geometry": {"type": "Point", "coordinates": [558259.037, 5931841.981]}, "properties": {"bezeichnung": "Bücherhalle Finkenwerder", "adresse": "Ostfrieslandstraße 5", "ort": "21129 Hamburg", "telefon": "+49 40 42606 2720", "link": "https://www.buecherhallen.de/finkenwerder.html", "angebotstyp": "Öffentliche Bücherhalle", "quelle_layer": "19574"}}, {"type": "Feature", "geometry": {"type": "Point", "coordinates": [574175.88, 5940208.758]}, "properties": {"bezeichnung": "Bücherhalle Farmsen", "adresse": "Rahlstedter Weg 10", "ort": "22159 Hamburg", "telefon": "+49 40 42606 2710", "link": "https://www.buecherhallen.de/farmsen.html", "angebotstyp": "Öffentliche Bücherhalle", "quelle_layer": "19574"}}, {"type": "Feature", "geometry": {"type": "Point", "coordinates": [567822.471, 5942413.43]}, "properties": {"bezeichnung": "Bücherhalle Fuhlsbüttel", "adresse": "Ratsmühlendamm 23", "ort": "22335 Hamburg", "telefon": "+49 40 42606 2730", "link": "https://www.buecherhallen.de/fuhlsbuettel.html", "angebotstyp": "Öffentliche Bücherhalle", "quelle_layer": "19574"}}, {"type": "Feature", "geometry": {"type": "Point", "coordinates": [565336.454, 5923521.28]}, "properties": {"bezeichnung": "Bücherhalle Harburg", "adresse": "Eddelbüttelstraße 47a", "ort": "21073 Hamburg", "telefon": "+49 40 42606 2740", "link": "https://www.buecherhallen.de/harburg.html", "angebotstyp": "Öffentliche Bücherhalle", "quelle_layer": "19574"}}, {"type": "Feature", "geometry": {"type": "Point", "coordinates": [563080.846, 5934655.51]}, "properties": {"bezeichnung": "Bücherhalle Holstenstraße", "adresse": "Norderreihe 5-7", "ort": "22767 Hamburg", "telefon": "+49 40 42606 2750", "link": "https://www.buecherhallen.de/holstenstrasse.html", "angebotstyp": "Öffentliche Bücherhalle", "quelle_layer": "19574"}}, {"type": "Feature", "geometry": {"type": "Point", "coordinates": [566866.781, 5928072.595]}, "properties": {"bezeichnung": "Bücherhalle Kirchdorf", "adresse": "Wilhelm-Strauß-Weg 2", "ort": "21109 Hamburg", "telefon": "+49 40 42606 2780", "link": "https://www.buecherhallen.de/kirchdorf.html", "angebotstyp": "Öffentliche Bücherhalle", "quelle_layer": "19574"}}, {"type": "Feature", "geometry": {"type": "Point", "coordinates": [567086.855, 5945015.247]}, "properties": {"bezeichnung": "Bücherhalle Langenhorn", "adresse": "Langenhorner Markt 1-18 (LaHoMa Living Plaza)", "ort": "22415 Hamburg", "telefon": "+49 40 42606 2790", "link": "https://www.buecherhallen.de/langenhorn.html", "angebotstyp": "Öffentliche Bücherhalle", "quelle_layer": "19574"}}, {"type": "Feature", "geometry": {"type": "Point", "coordinates": [563727.906, 5939460.024]}, "properties": {"bezeichnung": "Bücherhalle Lokstedt", "adresse": "Kollaustraße 1", "ort": "22529 Hamburg", "telefon": "+49 40 42606 2800", "link": "https://www.buecherhallen.de/lokstedt.html", "angebotstyp": "Öffentliche Bücherhalle", "quelle_layer": "19574"}}, {"type": "Feature", "geometry": {"type": "Point", "coordinates": [576138.517, 5931741.201]}, "properties": {"bezeichnung": "Bücherhalle Mümmelmannsberg", "adresse": "Feiningerstraße 8", "ort": "22115 Hamburg", "telefon": "+49 40 42606 2810", "link": "https://www.buecherhallen.de/muemmelmannsberg.html", "angebotstyp": "Öffentliche Bücherhalle", "quelle_layer": "19574"}}, {"type": "Feature", "geometry": {"type": "Point", "coordinates": [576839.485, 5927333.425]}, "properties": {"bezeichnung": "Bücherhalle Neuallermöhe", "adresse": "Fleetplatz 2-4", "ort": "21035 Hamburg", "telefon": "+49 40 42606 2820", "link": "https://www.buecherhallen.de/neuallermoehe.html", "angebotstyp": "Öffentliche Bücherhalle", "quelle_layer": "19574"}}, {"type": "Feature", "geometry": {"type": "Point", "coordinates": [556568.175, 5924851.89]}, "properties": {"bezeichnung": "Bücherhalle Neugraben", "adresse": "Neugrabener Markt 7", "ort": "21149 Hamburg", "telefon": "+49 40 42606 2830", "link": "https://www.buecherhallen.de/neugraben.html", "angebotstyp": "Öffentliche Bücherhalle", "quelle_layer": "19574"}}, {"type": "Feature", "geometry": {"type": "Point", "coordinates": [571664.534, 5934430.264]}, "properties": {"bezeichnung": "Bücherhalle Horn", "adresse": "Am Gojenboom 46 (Horner Freiheit)", "ort": "22111 Hamburg", "telefon": "+49 40 42606 2760", "link": "https://www.buecherhallen.de/horn.html", "angebotstyp": "Öffentliche Bücherhalle", "quelle_layer": "19574"}}, {"type": "Feature", "geometry": {"type": "Point", "coordinates": [574943.819, 5937462.05]}, "properties": {"bezeichnung": "Bücherhalle Jenfelder Au", "adresse": "Wilsonstraße 77", "ort": "22045 Hamburg", "telefon": "+49 40 42606 2770", "link": "https://www.buecherhallen.de/jenfelder-au.html", "angebotstyp": "Öffentliche Bücherhalle", "quelle_layer": "19574"}}, {"type": "Feature", "geometry": {"type": "Point", "coordinates": [562986.11, 5941904.814]}, "properties": {"bezeichnung": "Bücherhalle Niendorf", "adresse": "Tibarg 41 (im Tibarg-Center)", "ort": "22459 Hamburg", "telefon": "+49 40 42606 2840", "link": "https://www.buecherhallen.de/niendorf.html", "angebotstyp": "Öffentliche Bücherhalle", "quelle_layer": "19574"}}, {"type": "Feature", "geometry": {"type": "Point", "coordinates": [556208.006, 5938033.686]}, "properties": {"bezeichnung": "Bücherhalle Osdorfer Born", "adresse": "Kroonhorst 11 (im Born Center)", "ort": "22549 Hamburg", "telefon": "+49 40 42606 2850", "link": "https://www.buecherhallen.de/osdorf.html", "angebotstyp": "Öffentliche Bücherhalle", "quelle_layer": "19574"}}, {"type": "Feature", "geometry": {"type": "Point", "coordinates": [576481.087, 5939999.315]}, "properties": {"bezeichnung": "Bücherhalle Rahlstedt", "adresse": "Amtsstraße 3a", "ort": "22143 Hamburg", "telefon": "+49 40 42606 2860", "link": "https://www.buecherhallen.de/rahlstedt.html", "angebotstyp": "Öffentliche Bücherhalle", "quelle_layer": "19574"}}, {"type": "Feature", "geometry": {"type": "Point", "coordinates": [560705.473, 5942894.364]}, "properties": {"bezeichnung": "Bücherhalle Schnelsen", "adresse": "Wählingsallee 19", "ort": "22459 Hamburg", "telefon": "+49 40 42606 2870", "link": "https://www.buecherhallen.de/schnelsen.html", "angebotstyp": "Öffentliche Bücherhalle", "quelle_layer": "19574"}}, {"type": "Feature", "geometry": {"type": "Point", "coordinates": [569951.144, 5941128.675]}, "properties": {"bezeichnung": "Bücherhalle Steilshoop", "adresse": "Gropiusring 43a (im Campus Steilshoop)", "ort": "22309 Hamburg", "telefon": "+49 40 42606 2880", "link": "https://www.buecherhallen.de/steilshoop.html", "angebotstyp": "Öffentliche Bücherhalle", "quelle_layer": "19574"}}, {"type": "Feature", "geometry": {"type": "Point", "coordinates": [577255.418, 5944968.1]}, "properties": {"bezeichnung": "Bücherhalle Volksdorf", "adresse": "Eulenkrugstraße 55 (Unser Viertel)", "ort": "22359 Hamburg", "telefon": "+49 40 42606 2890", "link": "https://www.buecherhallen.de/volksdorf.html", "angebotstyp": "Öffentliche Bücherhalle", "quelle_layer": "19574"}}, {"type": "Feature", "geometry": {"type": "Point", "coordinates": [570824.297, 5936699.183]}, "properties": {"bezeichnung": "Bücherhalle Wandsbek", "adresse": "Wandsbeker Allee 64", "ort": "22041 Hamburg", "telefon": "+49 40 42606 2900", "link": "https://www.buecherhallen.de/wandsbek.html", "angebotstyp": "Öffentliche Bücherhalle", "quelle_layer": "19574"}}, {"type": "Feature", "geometry": {"type": "Point", "coordinates": [565395.821, 5930338.883]}, "properties": {"bezeichnung": "Bücherhalle Wilhelmsburg", "adresse": "Vogelhüttendeich 45", "ort": "21107 Hamburg", "telefon": "+49 40 42606 2910", "link": "https://www.buecherhallen.de/wilhelmsburg.html", "angebotstyp": "Öffentliche Bücherhalle", "quelle_layer": "19574"}}, {"type": "Feature", "geometry": {"type": "Point", "coordinates": [566212.304, 5938833.753]}, "properties": {"bezeichnung": "Bücherhalle Winterhude", "adresse": "Winterhuder Marktplatz 7b (im EKZ Forum Winterhude)", "ort": "22299 Hamburg", "telefon": "+49 40 42606 2920", "link": "https://www.buecherhallen.de/winterhude.html", "angebotstyp": "Öffentliche Bücherhalle", "quelle_layer": "19574"}}, {"type": "Feature", "geometry": {"type": "Point", "coordinates": [565319.305, 5923540.403]}, "properties": {"bezeichnung": "Hamburger Bücherbusse", "adresse": "Eddelbüttelstraße 57", "ort": "21073 Hamburg", "telefon": "+49 40 42606 2980", "link": "https://www.buecherhallen.de/buecherbusse.html", "angebotstyp": "Öffentliche Bücherhalle", "quelle_layer": "19574"}}]}